PROVIDER NUMBER,NAME,SUBURB,STATE,POSTCODE,HOSPITAL TYPE,,
0075130L,ABBOTSFORD PRIVATE HOSPITAL,WEST LEEDERVILLE,WA,6007,PRIVATE,,
0097040K,ACT ENDOSCOPY,DEAKIN,ACT,2600,PRIVATE,,
0067240H,ADELAIDE AMBULATORY DAY SURGERY,ADELAIDE,SA,5000,PRIVATE,,
0067180B,ADELAIDE CITY EAST DAY HOSPITAL,ADELAIDE,SA,5000,PRIVATE,,
0658181F,ADELAIDE DAY SURGERY,ADELAIDE,SA,5000,PRIVATE,,
0999771L,ADELAIDE SURGICENTRE,KENT TOWN,SA,5067,PRIVATE,,
0012920T,ADOLESCENT AND YOUNG ADULT HOSPICE  (AYAH),MANLY,NSW,2095,PUBLIC,,
0032140K,ADULT PREVENTION & RECOVERY CARE (A-PARC),FRANKSTON,VIC,3199,PUBLIC,,
0067310J,ADVANCED ORAL AND MAXILLOFACIAL SURGERY,ADELAIDE,SA,5000,PRIVATE,,
0896271A,AESTHETIC DAY SURGERY,KOGARAH,NSW,2217,PRIVATE,,
0075520Y,ALBANY COMMUNITY HOSPICE,ALBANY,WA,6330,PRIVATE,,
0077290B,ALBANY DAY HOSPITAL,MIRA MAR,WA,6330,PRIVATE,,
0070050J,ALBANY HOSPITAL,ALBANY,WA,6330,PUBLIC,,
0657791J,ALBURY DAY SURGERY,ALBURY,NSW,2640,PRIVATE,,
0010560W,ALBURY WODONGA HEALTH - ALBURY CAMPUS,ALBURY,NSW,2640,PUBLIC,,
0031390A,ALBURY WODONGA HEALTH - WODONGA CAMPUS,WODONGA,VIC,3690,PUBLIC,,
0016960X,ALBURY WODONGA PRIVATE HOSPITAL,ALBURY,NSW,2640,PRIVATE,,
0080470W,ALCOHOL AND DRUG SERVICES,NEWTOWN ,TAS,7008,PUBLIC,,
0030010T,ALEXANDRA DISTRICT HOSPITAL,ALEXANDRA,VIC,3714,PUBLIC,,
0027000Y,ALEXANDRIA SPECIALIST DAY HOSPITAL,ALEXANDRIA,NSW,2015,PRIVATE,,
0095020J,ALICE SPRINGS HOSPITAL,ALICE SPRINGS,NT,0870,PUBLIC,,
0015030B,ALLOWAH PRESBYTERIAN CHILDREN'S HOSPITAL,DUNDAS,NSW,2117,PRIVATE,,
0050010F,ALPHA HOSPITAL,ALPHA,QLD,4724,PUBLIC,,
0031740W,ALPINE HEALTH (BRIGHT),BRIGHT,VIC,3741,PUBLIC,,
0031190J,ALPINE HEALTH (MOUNT BEAUTY),MT BEAUTY,VIC,3699,PUBLIC,,
0030790T,ALPINE HEALTH (MYRTLEFORD),MYRTLEFORD,VIC,3736,PUBLIC,,
0015040A,ALWYN REHABILITATION HOSPITAL,STRATHFIELD,NSW,2135,PRIVATE,,
0037080K,ANAM CARA HOUSE GEELONG,WAURN PONDS,VIC,3216,PRIVATE,,
0060050B,ANGASTON HOSPITAL,ANGASTON,SA,5353,PUBLIC,,
0031330L,ANGLISS HOSPITAL,UPPER FERNTREE GULLY,VIC,3156,PUBLIC,,
0017560F,ARCADIA PITTWATER PRIVATE HOSPITAL,WARRIEWOOD,NSW,2102,PRIVATE,,
0067290X,ARCHER ST DAY HOSPITAL,NORTH ADELAIDE,SA,5006,PRIVATE,,
0065390J,ARDROSSAN COMMUNITY HOSPITAL INC,ARDROSSAN,SA,5571,PRIVATE,,
0070040K,ARMADALE KELMSCOTT MEMORIAL HOSPITAL,ARMADALE,WA,6112,PUBLIC,,
0017190T,ARMIDALE PRIVATE HOSPITAL,ARMIDALE,NSW,2350,PRIVATE,,
0010570T,ARMIDALE RURAL REFERRAL HOSPITAL,ARMIDALE,NSW,2350,PUBLIC,,
0037010B,ARROW HEALTH,WOODEND,VIC,3442,PRIVATE,,
0027520X,ARTARMON DAY SURGERY,ARTARMON,NSW,2064,PRIVATE,,
0065020L,ASHFORD HOSPITAL,ASHFORD,SA,5035,PRIVATE,,
0050030A,ATHERTON HOSPITAL,ATHERTON,QLD,4883,PUBLIC,,
0075360Y,ATTADALE REHABILITATION HOSPITAL,ATTADALE,WA,6156,PRIVATE,,
0010020A,AUBURN HOSPITAL & COMMUNITY HEALTH SERVICES,AUBURN,NSW,2144,PUBLIC,,
0050040Y,AUGATHELLA HOSPITAL,AUGATHELLA,QLD,4477,PUBLIC,,
0071110F,AUGUSTA HOSPITAL,AUGUSTA,WA,6290,PUBLIC,,
0030060F,AUSTIN HEALTH - AUSTIN HOSPITAL,HEIDELBERG,VIC,3084,PUBLIC,,
0031620B,AUSTIN HEALTH - HEIDELBERG REPATRIATION HOSPITAL,HEIDELBERG WEST,VIC,3081,PUBLIC,,
0056290Y,AVIVE CLINIC BRISBANE,WINDSOR,QLD,4030,PRIVATE,,
0037110Y,AVIVE CLINIC MORNINGTON PENINSULA ,MOUNT ELIZA ,VIC,3930,PRIVATE,,
0050050X,AYR HOSPITAL,AYR,QLD,4807,PUBLIC,,
0056220L,B.BRAUN MORAYFIELD RENAL CARE CENTRE,MORAYFIELD ,QLD,4506,PRIVATE,,
0050060W,BABINDA HOSPITAL,BABINDA,QLD,4861,PUBLIC,,
0030080A,BAIRNSDALE REGIONAL HEALTH SERVICE,BAIRNSDALE,VIC,3875,PUBLIC,,
0060060A,BALAKLAVA HOSPITAL,BALAKLAVA,SA,5461,PUBLIC,,
0043620T,BALLARAT DAY PROCEDURE CENTRE,WENDOUREE,VIC,3355,PRIVATE,,
0034220W,BALLARAT HEALTH SERVICES - QUEEN ELIZABETH CENTRE,BALLARAT,VIC,3350,PUBLIC,,
0030090Y,BALLARAT HEALTH SERVICES (BASE HOSPITAL),BALLARAT CENTRAL,VIC,3350,PUBLIC,,
0044080X,BALLARAT SURGICENTRE,SOLDIERS HILL,VIC,3350,PRIVATE,,
0027050K,BALLINA DAY SURGERY,BALLINA,NSW,2478,PRIVATE,,
0010580L,BALLINA DISTRICT HOSPITAL,BALLINA,NSW,2478,PUBLIC,,
0010030Y,BALMAIN HOSPITAL,BALMAIN,NSW,2041,PUBLIC,,
0010590K,BALRANALD MULTI PURPOSE SERVICE,BALRANALD,NSW,2715,PUBLIC,,
0051460T,BAMAGA HOSPITAL,BAMAGA,QLD,4876,PUBLIC,,
0010040X,BANKSTOWN-LIDCOMBE HOSPITAL,BANKSTOWN,NSW,2200,PUBLIC,,
0011030L,BARADINE MULTI PURPOSE SERVICE,BARADINE,NSW,2396,PUBLIC,,
0050070T,BARALABA HOSPITAL,BARALABA,QLD,4702,PUBLIC,,
0050080L,BARCALDINE HOSPITAL,BARCALDINE,QLD,4725,PUBLIC,,
0010610A,BARHAM KOONDROOK SOLDIERS MEMORIAL HOSPITAL,BARHAM,NSW,2732,PUBLIC,,
0016920F,BARINGA PRIVATE HOSPITAL,COFFS HARBOUR,NSW,2450,PRIVATE,,
0060670X,BARMERA HEALTH SERVICES,BARMERA,SA,5345,PUBLIC,,
0010620Y,BARRABA MULTI PURPOSE SERVICE,BARRABA,NSW,2347,PUBLIC,,
0097000X,BARTON PRIVATE HOSPITAL,BARTON,ACT,2600,PRIVATE,,
0032040T,BARWON HEALTH - ASHLEY MANOR CAMPUS,BELMONT,VIC,3216,PUBLIC,,
0030470J,BARWON HEALTH - GEELONG HOSPITAL CAMPUS,GEELONG,VIC,3220,PUBLIC,,
0034090K,BARWON HEALTH - MCKELLAR CENTRE CAMPUS,NORTH GEELONG,VIC,3215,PUBLIC,,
0032060K,BARWON HEALTH - NEWCOMB RENAL UNIT CAMPUS,NEWCOMB,VIC,3219,PUBLIC,,
0032070J,BARWON HEALTH - SOUTH GEELONG RENAL UNIT CAMPUS,SOUTH GEELONG,VIC,3220,PUBLIC,,
0032170F,BARWON HEALTH NORTH,NORLANE,VIC,3214,PUBLIC,,
0031400T,BASS COAST REGIONAL HEALTH,WONTHAGGI,VIC,3995,PUBLIC,,
0010640W,BATEMANS BAY HOSPITAL,BATEMANS BAY,NSW,2536,PUBLIC,,
0010650T,BATHURST BASE HOSPITAL,BATHURST,NSW,2795,PUBLIC,,
0017100K,BATHURST PRIVATE HOSPITAL,BATHURST,NSW,2795,PRIVATE,,
0010660L,BATLOW/ADELONG MULTI PURPOSE SERVICE,BATLOW,NSW,2730,PUBLIC,,
0043570J,BAYSIDE DAY PROCEDURE AND SPECIALIST CENTRE,FRANKSTON,VIC,3199,PRIVATE,,
0895011H,BAYSIDE ENDOSCOPY DAY HOSPITAL,BENTLEIGH,VIC,3204,PRIVATE,,
0080080J,BEACONSFIELD DISTRICT HEALTH SERVICE,BEACONSFIELD,TAS,7270,PUBLIC,,
0050090K,BEAUDESERT HOSPITAL,BEAUDESERT,QLD,4285,PUBLIC,,
0030990H,BEAUFORT & SKIPTON HEALTH SERVICES - BEAUFORT CAMPUS,BEAUFORT,VIC,3373,PUBLIC,,
0030990H,BEAUFORT & SKIPTON HEALTH SERVICES - SKIPTON CAMPUS,SKIPTON,VIC,3361,PUBLIC,,
0067120T,BEDFORD DAY SURGERY,TONSLEY,SA,5042,PRIVATE,,
0031690K,BEECHWORTH HEALTH SERVICE,BEECHWORTH,VIC,3747,PUBLIC,,
0036200F,BELEURA PRIVATE HOSPITAL,MORNINGTON,VIC,3931,PRIVATE,,
0027330B,BELLA VISTA DAY HOSPITAL,BELLA VISTA,NSW,2153,PRIVATE,,
0010680J,BELLINGER RIVER DISTRICT HOSPITAL,BELLINGEN,NSW,2454,PUBLIC,,
0012550B,BELMONT HOSPITAL,BELMONT,NSW,2280,PUBLIC,,
0055630B,BELMONT PRIVATE HOSPITAL,CARINA,QLD,4152,PRIVATE,,
0030110K,BENALLA HEALTH,BENALLA,VIC,3672,PUBLIC,,
0043950X,BENDIGO DAY SURGERY,BENDIGO,VIC,3554,PRIVATE,,
0030120J,BENDIGO HEALTH - THE BENDIGO HOSPITAL ,BENDIGO,VIC,3550,PUBLIC,,
0043850A,BENTLEIGH SURGICENTRE,BENTLEIGH,VIC,3204,PRIVATE,,
0071150X,BENTLEY HEALTH SERVICE,BENTLEY,WA,6102,PUBLIC,,
0017020K,BERKELEY VALE PRIVATE HOSPITAL,BERKELEY VALE,NSW,2261,PRIVATE,,
0010700Y,BERRIGAN WAR MEMORIAL HOSPITAL/MULTI PURPOSE SERVICE,BERRIGAN,NSW,2712,PUBLIC,,
0043540T,BERWICK SURGICENTRE,BERWICK,VIC,3806,PRIVATE,,
0075760F,BETHESDA CLINIC,COCKBURN,WA,6164,PRIVATE,,
0075020X,BETHESDA HOSPITAL,CLAREMONT,WA,6010,PRIVATE,,
0070060H,BEVERLEY HOSPITAL,BEVERLEY,WA,6304,PUBLIC,,
0050100B,BIGGENDEN MULTIPURPOSE HEALTH SERVICE,BIGGENDEN,QLD,4621,PUBLIC,,
0050110A,BILOELA HOSPITAL,BILOELA,QLD,4715,PUBLIC,,
0010710X,BINGARA MULTIPURPOSE SERVICE,BINGARA,NSW,2404,PUBLIC,,
0050130X,BLACKALL HOSPITAL,BLACKALL,QLD,4472,PUBLIC,,
0012490Y,BLACKTOWN HOSPITAL,BLACKTOWN,NSW,2148,PUBLIC,,
0051570J,BLACKWATER HOSPITAL,BLACKWATER,QLD,4717,PUBLIC,,
0010720W,BLAYNEY MULTIPURPOSE SERVICE,BLAYNEY,NSW,2799,PUBLIC,,
0010730T,BLUE MOUNTAINS DISTRICT ANZAC MEMORIAL HOSPITAL,KATOOMBA,NSW,2780,PUBLIC,,
0070070F,BODDINGTON HOSPITAL,BODDINGTON,WA,6390,PUBLIC,,
0010740L,BOGGABRI MULTI PURPOSE SERVICE,BOGGABRI,NSW,2382,PUBLIC,,
0010750K,BOMBALA MULTI PURPOSE SERVICE,BOMBALA,NSW,2632,PUBLIC,,
0010760J,BONALBO HOSPITAL,BONALBO,NSW,2469,PUBLIC,,
0027680B,BOND DAY HOSPITAL ,BELLA VISTA,NSW,2153,PRIVATE,,
0836101F,BONDI JUNCTION ENDOSCOPY CENTRE,WOOLLAHRA,NSW,2025,PRIVATE,,
0017220B,BONDI JUNCTION PRIVATE HOSPITAL,BONDI JUNCTION,NSW,2022,PRIVATE,,
0060100J,BOOLEROO CAMPUS,BOOLEROO CENTRE,SA,5482,PUBLIC,,
0050150T,BOONAH HOSPITAL,BOONAH,QLD,4310,PUBLIC,,
0010770H,BOOROWA MULTI PURPOSE SERVICE HOSPITAL,BOOROWA,NSW,2586,PUBLIC,,
0030140F,BOORT DISTRICT HEALTH,BOORT,VIC,3537,PUBLIC,,
0060110H,BORDERTOWN MEMORIAL HOSPITAL,BORDERTOWN,SA,5268,PUBLIC,,
0032220K,BOROONDARA DAY SURGERY ,HAWTHORN,VIC,3122,PRIVATE,,
0010780F,BOURKE MULTI PURPOSE SERVICE,BOURKE,NSW,2840,PUBLIC,,
0012020H,BOURKE STREET HEALTH SERVICE GOULBURN,GOULBURN,NSW,2580,PUBLIC,,
0050170K,BOWEN HOSPITAL,BOWEN,QLD,4805,PUBLIC,,
0010690H,BOWRAL HOSPITAL,BOWRAL,NSW,2576,PUBLIC,,
0030150B,BOX HILL HOSPITAL,BOX HILL,VIC,3128,PUBLIC,,
0070080B,BOYUP BROOK SOLDIERS MEMORIAL HOSPITAL,BOYUP BROOK,WA,6244,PUBLIC,,
0012830W,BRAESIDE HOSPITAL,PRAIRIEWOOD,NSW,2176,PUBLIC,,
0010790B,BRAIDWOOD MULTI PURPOSE SERVICE,BRAIDWOOD,NSW,2622,PUBLIC,,
0010820L,BREWARRINA MULTI PURPOSE SERVICE,BREWARRINA,NSW,2839,PUBLIC,,
0070090A,BRIDGETOWN HOSPITAL,BRIDGETOWN,WA,6255,PUBLIC,,
0931151B,BRIGHTON DAY SURGERY,BRIGHTON,SA,5048,PRIVATE,,
0930971X,BRIGHTON DIALYSIS CLINIC,HOVE,SA,5048,PRIVATE,,
0999781K,BRINDABELLA ENDOSCOPY CENTRE,GARRAN,ACT,2605,PRIVATE,,
0923141F,BRISBANE DAY SURGERY,SPRING HILL,QLD,4004,PRIVATE,,
0656651H,BRISBANE ENDOSCOPY SERVICE,SUNNYBANK,QLD,4109,PRIVATE,,
0055080W,BRISBANE PRIVATE HOSPITAL,BRISBANE,QLD,4000,PRIVATE,,
0057550J,BRISBANE PROCEDURE CENTRE ,NEWSTEAD,QLD,4006,PRIVATE,,
0057630J,BRISBANE SOUTH PRIVATE HOSPITAL,SPRINGWOOD,QLD,4127,PRIVATE,,
0016930B,BRISBANE WATERS PRIVATE HOSPITAL,WOY WOY,NSW,2256,PRIVATE,,
0031920L,BROADMEADOWS HEALTH SERVICE,BROADMEADOWS,VIC,3047,PUBLIC,,
0057580B,BROADWATER PRIVATE DAY HOSPITAL,SOUTHPORT,QLD,4215,PRIVATE,,
0010830K,BROKEN HILL BASE HOSPITAL,BROKEN HILL,NSW,2880,PUBLIC,,
0070110L,BROOME HOSPITAL,BROOME,WA,6725,PUBLIC,,
0070120K,BRUCE ROCK MEMORIAL HOSPITAL,BRUCE ROCK,WA,6418,PUBLIC,,
0035970T,BRUNSWICK PRIVATE HOSPITAL,BRUNSWICK,VIC,3056,PRIVATE,,
0057110K,BUDERIM GASTROENTEROLOGY CENTRE ,MAROOCHYDORE,QLD,4558,PRIVATE,,
0055740X,BUDERIM PRIVATE HOSPITAL,BUDERIM,QLD,4556,PRIVATE,,
0010840J,BULAHDELAH COMMUNITY HOSPITAL,BULAHDELAH,NSW,2423,PUBLIC,,
0010850H,BULLI HOSPITAL,BULLI,NSW,2516,PUBLIC,,
0077130X,BUNBURY DAY HOSPITAL,BUNBURY,WA,6230,PRIVATE,,
0071120B,BUNBURY HOSPITAL,BUNBURY,WA,6230,PUBLIC,,
0050210X,BUNDABERG HOSPITAL,BUNDABERG,QLD,4670,PUBLIC,,
0057530L,BUNDABERG PRIVATE DAY HOSPITAL,KENSINGTON,QLD,4670,PRIVATE,,
0031760L,BUNDOORA EXTENDED CARE CENTRE,BUNDOORA,VIC,3083,PUBLIC,,
0067340B,BURNSIDE DAY SURGERY,HAZELWOOD PARK,SA,5066,PRIVATE ,,
0065880L,BURNSIDE HOSPITAL STEPNEY,STEPNEY,SA,5069,PRIVATE,,
0065050H,BURNSIDE HOSPITAL TOORAK GARDENS,TOORAK GARDENS,SA,5065,PRIVATE,,
0060120F,BURRA HOSPITAL,BURRA,SA,5417,PUBLIC,,
0070150F,BUSSELTON HOSPITAL,BUSSELTON,WA,6280,PUBLIC,,
0012900X,BYRON CENTRAL HOSPITAL,EWINGSDALE,NSW,2481,PUBLIC,,
0051830F,CABOOLTURE HOSPITAL,CABOOLTURE,QLD,4510,PUBLIC,,
0055900X,CABOOLTURE PRIVATE HOSPITAL,CABOOLTURE,QLD,4510,PRIVATE,,
0027650J,CABRAMATTA DAY SURGERY,CABRAMATTA,NSW,2166,PRIVATE,,
0036620H,CABRINI BRIGHTON,BRIGHTON,VIC,3186,PRIVATE,,
0035790X,CABRINI MALVERN,MALVERN,VIC,3144,PRIVATE,,
0035790X,CABRINI PRAHRAN,PRAHRAN EAST,VIC,3181,PRIVATE,,
0050230T,CAIRNS BASE HOSPITAL,CAIRNS,QLD,4870,PUBLIC,,
0055220Y,CAIRNS PRIVATE HOSPITAL,CAIRNS,QLD,4870,PRIVATE,,
0051500A,CALOUNDRA HOSPITAL,CALOUNDRA,QLD,4551,PUBLIC,,
0085010F,CALVARY - LENAH VALLEY HOSPITAL,LENAH VALLEY,TAS,7008,PRIVATE,,
0085010F,CALVARY - ST JOHN'S HOSPITAL,SOUTH HOBART,TAS,7004,PRIVATE,,
0085080L,CALVARY - ST LUKE'S HOSPITAL,LAUNCESTON,TAS,7250,PRIVATE,,
0085080L,CALVARY - ST VINCENT'S HOSPITAL,LAUNCESTON,TAS,7250,PRIVATE,,
0065360T & 0065070B,CALVARY ADELAIDE HOSPITAL,ADELAIDE,SA,5000,PRIVATE,,
0015000J,CALVARY BRUCE PRIVATE HOSPITAL,BRUCE,ACT,2617,PRIVATE,,
0065810F,CALVARY CENTRAL DISTRICTS HOSPITAL,ELIZABETH VALE,SA,5112,PRIVATE,,
0031480Y,CALVARY HEALTH CARE BETHLEHEM,CAULFIELD,VIC,3162,PUBLIC,,
0012520J,CALVARY HEALTH CARE SYDNEY LTD,KOGARAH,NSW,2217,PUBLIC,,
0091010Y,CALVARY JOHN JAMES HOSPITAL,DEAKIN,ACT,2600,PRIVATE,,
0011870W,CALVARY MATER NEWCASTLE,WARATAH,NSW,2298,PUBLIC,,
0065060F,CALVARY NORTH ADELAIDE HOSPITAL,NORTH ADELAIDE,SA,5006,PRIVATE,,
0016860A,CALVARY RIVERINA HOSPITAL,WAGGA WAGGA,NSW,2650,PRIVATE,,
0988261T,CALVARY RIVERINA SURGICENTRE,WAGGA WAGGA,NSW,2650,PRIVATE,,
0656581F,CAMBERWELL DAY SURGERY,HAWTHORN EAST,VIC,3123,PRIVATE,,
0075650K,CAMBRIDGE DAY SURGERY,WEMBLEY,WA,6014,PRIVATE,,
0010870B,CAMDEN HOSPITAL,CAMDEN,NSW,2570,PUBLIC,,
0017690W,CAMDEN SURGICAL HOSPITAL,ELDERSLIE,NSW,2570,PRIVATE,,
0080100Y,CAMPBELL TOWN HEALTH AND COMMUNITY SERVICE,CAMPBELL TOWN,TAS,7210,PUBLIC,,
0012750W,CAMPBELLTOWN HOSPITAL,CAMPBELLTOWN,NSW,2560,PUBLIC,,
0017290K,CAMPBELLTOWN PRIVATE HOSPITAL,CAMPBELLTOWN,NSW,2560,PRIVATE,,
0027390L,CAMPSIE DAY SURGERY,CAMPSIE,NSW,2194,PRIVATE,,
0097030L,CANBERRA IMAGING GROUP,DEAKIN,ACT,2600,PRIVATE,,
0097050J,CANBERRA MICROSURGERY,PHILLIP,ACT,2606,PRIVATE,,
0095130B,CANBERRA PRIVATE HOSPITAL,DEAKIN,ACT,2600,PRIVATE,,
0097070F,CANBERRA REGION NEUROLOGY AND PAIN CENTRE,PHILLIP,ACT,2606,PRIVATE,,
0988281K,CANBERRA SURGICENTRE,BRADDON,ACT,2612,PRIVATE,,
0017710H,CANCER CARE GRIFFITH ,GRIFFITH,NSW,2680,PRIVATE ,,
0017740A,CANCER CARE MACARTHUR,CAMPBELLTOWN,NSW,2560,PRIVATE,,
0936951X,CANCER CARE WOLLONGONG,WOLLONGONG,NSW,2500,PRIVATE,,
0077240L,CANNINGTON DIALYSIS CLINIC ,CANNINGTON,WA,6107,PRIVATE,,
0055580X,CANOSSA PRIVATE HOSPITAL,OXLEY,QLD,4075,PRIVATE,,
0010890Y,CANOWINDRA SOLDIERS MEMORIAL HOSPITAL,CANOWINDRA,NSW,2804,PUBLIC,,
0010090J,CANTERBURY HOSPITAL,CAMPSIE,NSW,2194,PUBLIC,,
0051390L,CAPRICORN COAST HOSPITAL AND HEALTH SERVICE,YEPPOON,QLD,4703,PUBLIC,,
0030210H,CARITAS CHRISTI HOSPICE,KEW,VIC,3101,PUBLIC,,
0070160B,CARNARVON HOSPITAL,CARNARVON,WA,6701,PUBLIC,,
0044040F,CASEY DAY HOSPITAL,NARRE WARREN,VIC,3805,PRIVATE,,
0032230J,CASEY EARLY PARENTING CENTRE,CLYDE NORTH,VIC,3978,PUBLIC,,
0031960F,CASEY HOSPITAL,BERWICK,VIC,3806,PUBLIC,,
0010920J,CASINO AND DISTRICT MEMORIAL HOSPITAL,CASINO,NSW,2470,PUBLIC,,
0030200J,CASTERTON MEMORIAL HOSPITAL,CASTERTON,VIC,3311,PUBLIC,,
0015200A,CASTLECRAG PRIVATE HOSPITAL,CASTLECRAG,NSW,2068,PRIVATE,,
0031780J,CASTLEMAINE HEALTH,CASTLEMAINE,VIC,3450,PUBLIC,,
0031570X,CAULFIELD HOSPITAL,CAULFIELD,VIC,3162,PUBLIC,,
0060630F,CEDUNA HOSPITAL,CEDUNA,SA,5690,PUBLIC,,
0017370K,CENTRAL COAST DAY HOSPITAL - ERINA,ERINA,NSW,2250,PRIVATE,,
0067220K,CENTRAL DAY SURGERY,DULWICH,SA,5065,PRIVATE,,
0034620A,CENTRAL GIPPSLAND HEALTH SERVICE (MAFFRA),MAFFRA,VIC,3860,PUBLIC,,
0030480H,CENTRAL GIPPSLAND HEALTH SERVICE (SALE),SALE,VIC,3850,PUBLIC,,
0030300F,CENTRAL HIGHLANDS RURAL HEALTH - CRESWICK,CRESWICK,VIC,3363,PUBLIC,,
0030320A,CENTRAL HIGHLANDS RURAL HEALTH - DAYLESFORD,DAYLESFORD,VIC,3460,PUBLIC,,
0030600T,CENTRAL HIGHLANDS RURAL HEALTH - KYNETON,KYNETON,VIC,3444,PUBLIC,,
0999801A,CENTRAL SYDNEY PRIVATE HOSPITAL,SYDNEY,NSW,2000,PRIVATE,,
0656741F,CENTRE FOR DIGESTIVE DISEASES,FIVE DOCK,NSW,2046,PRIVATE,,
0010940F,CESSNOCK DISTRICT HOSPITAL,CESSNOCK,NSW,2325,PUBLIC,,
0017400Y,CHARLESTOWN PRIVATE HOSPITAL,CHARLESTOWN,NSW,2290,PRIVATE,,
0050250K,CHARLEVILLE HOSPITAL,CHARLEVILLE,QLD,4470,PUBLIC,,
0050260J,CHARTERS TOWERS HOSPITAL,CHARTERS TOWERS,QLD,4820,PUBLIC,,
0026880B,CHATSWOOD DAY SURGERY,CHATSWOOD,NSW,2067,PRIVATE,,
0017520L,CHATSWOOD PRIVATE HOSPITAL,CHATSWOOD,NSW,2067,PRIVATE,,
0044090W,CHELSEA HEIGHTS DAY SURGERY AND ENDOSCOPY,CHELSEA HEIGHTS,VIC,3196,PRIVATE,,
0050270H,CHERBOURG HOSPITAL,CHERBOURG,QLD,4605,PUBLIC,,
0057330Y,CHERMSIDE DAY HOSPITAL,CHERMSIDE,QLD,4032,PRIVATE,,
0057290L,CHERMSIDE DIALYSIS CLINIC,CHERMSIDE,QLD,4032,PRIVATE,,
0656851Y,CHESTERVILLE DAY HOSPITAL,CHELTENHAM,VIC,3192,PRIVATE,,
0050280F,CHILDERS MULTIPURPOSE HEALTH SERVICE,CHILDERS,QLD,4660,PUBLIC,,
0050300W,CHINCHILLA HOSPITAL,CHINCHILLA,QLD,4413,PUBLIC,,
0027350Y,CHRIS O'BRIEN LIFEHOUSE,CAMPERDOWN,NSW,2050,PRIVATE,,
0894301F,CITY WEST SPECIALIST DAY HOSPITAL,WESTMEAD,NSW,2145,PRIVATE,,
0060130B,CLARE HOSPITAL,CLARE,SA,5453,PUBLIC,,
0050310T,CLERMONT MULTI-PURPOSE HEALTH SERVICE,CLERMONT,QLD,4721,PUBLIC,,
0055230X,CLIFTON CO-OP HOSPITAL LTD,CLIFTON,QLD,4361,PRIVATE,,
0050320L,CLONCURRY MULTI-PURPOSE HEALTH SERVICE,CLONCURRY,QLD,4824,PUBLIC,,
0010950B,COBAR DISTRICT HOSPITAL,COBAR,NSW,2835,PUBLIC,,
0030250Y,COBRAM DISTRICT HEALTH,COBRAM,VIC,3644,PUBLIC,,
0043640K,COBURG ENDOSCOPY CENTRE,COBURG,VIC,3058,PRIVATE,,
0027610W,COFFS DAY HOSPITAL,COFFS HARBOUR,NSW,2450,PRIVATE,,
0010960A,COFFS HARBOUR BASE HOSPITAL,COFFS HARBOUR,NSW,2450,PUBLIC,,
0030260X,COHUNA DISTRICT HOSPITAL,COHUNA,VIC,3568,PUBLIC,,
0030270W,COLAC AREA HEALTH,COLAC,VIC,3250,PUBLIC,,
0010970Y,COLEDALE HOSPITAL,COLEDALE,NSW,2515,PUBLIC,,
0010980X,COLLARENEBRI MULTI PURPOSE SERVICE,COLLARENEBRI,NSW,2833,PUBLIC,,
0070170A,COLLIE DISTRICT HOSPITAL,COLLIE,WA,6225,PUBLIC,,
0050340J,COLLINSVILLE MULTI-PURPOSE HEALTH SERVICE,COLLINSVILLE,QLD,4804,PUBLIC,,
0075630T,CONCEPT DAY HOSPITAL,SUBIACO,WA,6008,PRIVATE,,
0012720A,CONCORD REPATRIATION HOSPITAL,CONCORD,NSW,2139,PUBLIC,,
0010990W,CONDOBOLIN DISTRICT HOSPITAL,CONDOBOLIN,NSW,2877,PUBLIC,,
0026480X,CONDOBOLIN RETIREMENT VILLAGE,CONDOBOLIN,NSW,2877,PUBLIC,,
0050350H,COOKTOWN HOSPITAL,COOKTOWN,QLD,4895,PUBLIC,,
0011000X,COOLAH MULTI PURPOSE SERVICE,COOLAH,NSW,2843,PUBLIC,,
0011520W,COOLAMON-GANMAIN MULTI PURPOSE SERVICE HOSPITAL,COOLAMON,NSW,2701,PUBLIC,,
0027180A,COOLENBERG DAY SURGERY,PORT MACQUARIE,NSW,2444,PRIVATE,,
0011010W,COOMA HOSPITAL & HEALTH SERVICE,COOMA,NSW,2630,PUBLIC,,
0011020T,COONABARABRAN DISTRICT HOSPITAL,COONABARABRAN,NSW,2357,PUBLIC,,
0011050J,COONAMBLE HEALTH SERVICE,COONAMBLE,NSW,2829,PUBLIC,,
0011070F,COOTAMUNDRA DISTRICT HOSPITAL,COOTAMUNDRA,NSW,2590,PUBLIC,,
0011080B,COROWA HEALTH SERVICE,COROWA,NSW,2646,PUBLIC,,
0070190X,CORRIGIN HOSPITAL,CORRIGIN,WA,6375,PUBLIC,,
0043940Y,CORYMBIA DAY HOSPITAL,DANDENONG,VIC,3175,PRIVATE,,
0011090A,COWRA DISTRICT HOSPITAL,COWRA,NSW,2794,PUBLIC,,
0077220W,CRAIGIE DAY SURGERY,CRAIGIE,WA,6025,PRIVATE,,
0031980A,CRAIGIEBURN HEALTH SERVICE,CRAIGIEBURN,VIC,3064,PUBLIC,,
0032030W,CRANBOURNE INTEGRATED CARE CENTRE,CRANBOURNE,VIC,3977,PUBLIC,,
0044320X,CREMORNE PRIVATE DAY SURGERY,CREMORNE,VIC,3121,PRIVATE,,
0011100T,CROOKWELL DISTRICT HOSPITAL,CROOKWELL,NSW,2583,PUBLIC,,
0027270Y,CROWS NEST DAY HOSPITAL,CROWS NEST,NSW,2065,PRIVATE,,
0060160X,CRYSTAL BROOK CAMPUS,CRYSTAL BROOK,SA,5523,PUBLIC,,
0011120K,CULCAIRN MULTI PURPOSE SERVICE HOSPITAL,CULCAIRN,NSW,2660,PUBLIC,,
0012880H,CUMBERLAND HOSPITAL,WESTMEAD,NSW,2145,PUBLIC,,
0060170W,CUMMINS HOSPITAL,CUMMINS,SA,5631,PUBLIC,,
0070220H,CUNDERDIN HEALTH SERVICE,CUNDERDIN,WA,6407,PUBLIC,,
0050390Y,CUNNAMULLA HOSPITAL,CUNNAMULLA,QLD,4490,PUBLIC,,
0055760T,CURRUMBIN CLINIC,CURRUMBIN,QLD,4223,PRIVATE,,
0050400L,DALBY HOSPITAL HEALTH SERVICE,DALBY,QLD,4405,PUBLIC,,
0070230F,DALWALLINU HOSPITAL,DALWALLINU,WA,6609,PUBLIC,,
0030310B,DANDENONG HOSPITAL,DANDENONG,VIC,3175,PUBLIC,,
0098010J,DARWIN DAY SURGERY,WANGURI,NT,0810,PRIVATE,,
0097660F,DARWIN PRIVATE HOSPITAL,TIWI,NT,0810,PRIVATE,,
0011130J,DAVID BERRY HOSPITAL,BERRY,NSW,2535,PUBLIC,,
0666401J,DEE WHY ENDOSCOPY UNIT,DEE WHY,NSW,2099,PRIVATE,,
0011140H,DELEGATE MULTI PURPOSE SERVICE,DELEGATE,NSW,2633,PUBLIC,,
0015380B,DELMAR PRIVATE HOSPITAL,DEE WHY,NSW,2099,PRIVATE,,
0036210B,DELMONT PRIVATE HOSPITAL,GLEN IRIS,VIC,3146,PRIVATE,,
0077630Y,DELORAINE DISTRICT HOSPITAL AND COMMUNITY HEALTH SERVICES,DELORAINE,TAS,7304,PUBLIC,,
0011150F,DENILIQUIN HOSPITAL,DENILIQUIN,NSW,2710,PUBLIC,,
0010810T,DENMAN MULTI PURPOSE SERVICE,DENMAN,NSW,2328,PUBLIC,,
0070240B,DENMARK HOSPITAL,DENMARK,WA,6333,PUBLIC,,
0031530F,DENTAL HEALTH SERVICES VICTORIA,CARLTON,VIC,3053,PUBLIC,,
0070250A,DERBY HOSPITAL,DERBY,WA,6728,PUBLIC,,
0087040F,DEVONPORT EYE HOSPITAL,DEVONPORT,TAS,7310,PRIVATE,,
0067100X,DEXTRA SURGICAL,NORWOOD,SA,5067,PRIVATE,,
0657131A,DIAGNOSTIC ENDOSCOPY CENTRE,DARLINGHURST,NSW,2010,PRIVATE,,
0035140J,DIAMOND VALLEY RENAL CARE CENTRE,GREENSBOROUGH,VIC,3088,PRIVATE,,
0050410K,DIRRANBANDI HOSPITAL,DIRRANBANDI,QLD,4486,PUBLIC,,
0044310Y,DONCASTER PRIVATE HOSPITAL,DONCASTER,VIC,3108,PRIVATE,,
0071570Y,DONGARA MULTI-PURPOSE HEALTH CENTRE,DONGARA,WA,6525,PUBLIC,,
0070260Y,DONNYBROOK HOSPITAL,DONNYBROOK,WA,6239,PUBLIC,,
0036190L,DONVALE REHABILITATION HOSPITAL,DONVALE,VIC,3111,PRIVATE,,
0050000H,DOOMADGEE HOSPITAL,DOOMADGEE,QLD,4830,PUBLIC,,
0011160B,DORRIGO MULTI PURPOSE SERVICE,DORRIGO,NSW,2453,PUBLIC,,
0036220A,DORSET REHABILITATION CENTRE,PASCOE VALE,VIC,3044,PRIVATE,,
0027480K,DOUBLE BAY DAY HOSPITAL,DOUBLE BAY,NSW,2028,PRIVATE,,
0044110H,DR SCOPE,SUNSHINE,VIC,3020,PRIVATE,,
0011170A,DUBBO BASE HOSPITAL,DUBBO,NSW,2830,PUBLIC,,
0017060B,DUBBO PRIVATE HOSPITAL,DUBBO,NSW,2830,PRIVATE,,
0015400T,DUDLEY PRIVATE HOSPITAL,ORANGE,NSW,2800,PRIVATE,,
0070270X,DUMBLEYUNG MEMORIAL HOSPITAL,DUMBLEYUNG,WA,6350,PUBLIC,,
0011180Y,DUNEDOO MULTI PURPOSE SERVICE,DUNEDOO,NSW,2844,PUBLIC,,
0011190X,DUNGOG COMMUNITY HOSPITAL,DUNGOG,NSW,2420,PUBLIC,,
0031810X,DUNMUNKLE HEALTH SERVICES,RUPANYUP,VIC,3388,PUBLIC,,
0051660H,DYSART HOSPITAL,DYSART,QLD,4745,PUBLIC,,
0057520T,EAST BRISBANE DAY HOSPITAL,EAST BRISBANE,QLD,4169,PRIVATE,,
0031890B,EAST GRAMPIANS HEALTH SERVICE - ARARAT,ARARAT,VIC,3377,PUBLIC,,
0031890B,EAST GRAMPIANS HEALTH SERVICE - WILLAURA CAMPUS,WILLAURA,VIC,3379,PUBLIC,,
0044010K,EAST MELBOURNE SPECIALIST DAY HOSPITAL,EAST MELBOURNE,VIC,3002,PRIVATE,,
0037070L,EAST SIDE RECOVERY,BORONIA,VIC,3155,PRIVATE,,
0017500W,EAST SYDNEY PRIVATE HOSPITAL,EAST SYDNEY,NSW,2010,PRIVATE,,
0031950H,EAST WIMMERA HEALTH SERVICE - BIRCHIP,BIRCHIP,VIC,3483,PUBLIC,,
0031940J,EAST WIMMERA HEALTH SERVICE - CHARLTON,CHARLTON,VIC,3525,PUBLIC,,
0030350W,EAST WIMMERA HEALTH SERVICE - DONALD,DONALD,VIC,3480,PUBLIC,,
0034770J,EAST WIMMERA HEALTH SERVICE - ST ARNAUD,ST ARNAUD,VIC,3478,PUBLIC,,
0031420K,EAST WIMMERA HEALTH SERVICE - WYCHEPROOF,WYCHEPROOF,VIC,3527,PUBLIC,,
0057060F,EASTERN ENDOSCOPY CENTRE,BIRKDALE,QLD,4159,PRIVATE,,
0060140A,EASTERN EYRE HEALTH AND AGED CARE - CLEVE CAMPUS,CLEVE,SA,5640,PUBLIC,,
0060150Y,EASTERN EYRE HEALTH AND AGED CARE - COWELL CAMPUS,COWELL,SA,5602,PUBLIC,,
0060260T,EASTERN EYRE HEALTH AND AGED CARE - KIMBA CAMPUS,KIMBA,SA,5641,PUBLIC,,
0032200T,EASTERN HEALTH BLACKBURN PUBLIC SURGICAL CENTRE ,BLACKBURN,VIC,3130,PUBLIC,,
0657471B,EASTERN HEART CLINIC,RANDWICK,NSW,2031,PRIVATE,,
0015860J,EASTERN SUBURBS PRIVATE HOSPITAL,RANDWICK,NSW,2031,PRIVATE,,
0043610W,EASTSIDE ENDOSCOPY CENTRE,RINGWOOD,VIC,3134,PRIVATE,,
0030380K,ECHUCA REGIONAL HEALTH,ECHUCA,VIC,3564,PUBLIC,,
0056010A,EDEN PRIVATE HOSPITAL,COOROY,QLD,4563,PRIVATE,,
0030390J,EDENHOPE AND DISTRICT MEMORIAL HOSPITAL,EDENHOPE,VIC,3318,PUBLIC,,
0050420J,EIDSVOLD MULTIPURPOSE HEALTH SERVICE,EIDSVOLD,QLD,4627,PUBLIC,,
0060180T,ELLISTON HOSPITAL,ELLISTON,SA,5670,PUBLIC,,
0050430H,EMERALD HOSPITAL,EMERALD,QLD,4720,PUBLIC,,
0012240W,EMMAVILLE - VEGETABLE CREEK RESIDENTIAL AGED CARE,EMMAVILLE,NSW,2371,PUBLIC,,
0027190Y,EPPING SURGERY CENTRE,EPPING,NSW,2121,PRIVATE,,
0036310Y,EPWORTH CAMBERWELL,CAMBERWELL,VIC,3124,PRIVATE,,
0036850T,EPWORTH EASTERN,BOX HILL,VIC,3128,PRIVATE,,
0035290W,EPWORTH FREEMASONS,EAST MELBOURNE,VIC,3002,PRIVATE,,
0036950K,EPWORTH GEELONG,WAURN PONDS,VIC,3216,PRIVATE,,
0036900Y,EPWORTH HAWTHORN,HAWTHORN,VIC,3122,PRIVATE,,
0036270L,EPWORTH REHABILITATION BRIGHTON,BRIGHTON,VIC,3186,PRIVATE,,
0035260A,EPWORTH RICHMOND,RICHMOND,VIC,3121,PRIVATE,,
0050440F,ESK HOSPITAL,ESK,QLD,4312,PUBLIC,,
0070280W,ESPERANCE HOSPITAL,ESPERANCE,WA,6450,PUBLIC,,
0085160L,ESPERANCE MULTI PURPOSE CENTRE,DOVER,TAS,7117,PUBLIC,,
0043700T,ESSENDON DAY PROCEDURE CENTRE,MOONEE PONDS,VIC,3039,PRIVATE,,
0036140A,ESSENDON PRIVATE CLINIC,ESSENDON WEST,VIC,3040,PRIVATE,,
0075770B,ESUS CENTRE,SUBIACO,WA,6008,PRIVATE,,
0060190L,EUDUNDA HOSPITAL,EUDUNDA,SA,5374,PUBLIC,,
0011200K,EUGOWRA MEMORIAL MULTI PURPOSE SERVICE,EUGOWRA,NSW,2806,PUBLIC,,
0035270Y,EUROA HEALTH,EUROA,VIC,3666,PRIVATE,,
0658051T,EXCEL ENDOSCOPY CENTRE,CAMPSIE,NSW,2194,PRIVATE,,
0071100H,EXMOUTH HOSPITAL,EXMOUTH,WA,6707,PUBLIC,,
0899091B,EYE-TECH DAY SURGERIES,SPRING HILL,QLD,4000,PRIVATE,,
0057260X,EYE-TECH DAY SURGERIES SOUTHSIDE,UPPER MOUNT GRAVATT,QLD,4122,PRIVATE,,
0010110Y,FAIRFIELD HOSPITAL,PRAIRIEWOOD,NSW,2176,PUBLIC,,
0027660H,FAMILY PLANNING NSW,NEWINGTON,NSW,2127,PRIVATE,,
0056090H,FAR NORTH DAY HOSPITAL,CAIRNS,QLD,4870,PRIVATE,,
0060740Y,FAR NORTH HEALTH SERVICES,COOBER PEDY,SA,5723,PUBLIC,,
0043510Y,FERTILITY CONTROL CLINIC,EAST MELBOURNE,VIC,3002,PRIVATE,,
0016950Y,FIGTREE PRIVATE HOSPITAL,FIGTREE,NSW,2525,PRIVATE,,
0011210J,FINLEY HOSPITAL & COMMUNITY HEALTH CARE,FINLEY,NSW,2713,PUBLIC,,
0071610H,FIONA STANLEY HOSPITAL,MURDOCH,WA,6150,PUBLIC,,
0056300L,FITZROY COMMUNITY HOSPICE,THE RANGE,QLD,4700,PRIVATE,,
0070290T,FITZROY CROSSING HOSPITAL,FITZROY CROSSING,WA,6765,PUBLIC,,
0080270B,FLINDERS ISLAND MULTI PURPOSE CENTRE,WHITEMARK,TAS,7255,PUBLIC,,
0060760W,FLINDERS MEDICAL CENTRE,BEDFORD PARK,SA,5042,PUBLIC,,
0065930X,FLINDERS PRIVATE HOSPITAL,BEDFORD PARK,SA,5042,PRIVATE,,
0057500X,FMC DIALYSIS CLINIC NORTH LAKES,NORTH LAKES,QLD,4509,PRIVATE,,
0657031F,FOCUS EYE CENTRE,KINGSFORD,NSW,2032,PRIVATE,,
0656351X,FOOTSCRAY DAY SURGERY,FOOTSCRAY,VIC,3011,PRIVATE,,
0011220H,FORBES DISTRICT HOSPITAL,FORBES,NSW,2871,PUBLIC,,
0043630L,FOREST HILL DIALYSIS CLINIC,FOREST HILL,VIC,3131,PRIVATE,,
0657381F,FOREST ROAD DAY SURGERY,HURSTVILLE,NSW,2220,PRIVATE,,
0015250L,FORSTER PRIVATE HOSPITAL,FORSTER,NSW,2428,PRIVATE,,
0036740Y,FRANCES PERRY HOUSE,PARKVILLE,VIC,3052,PRIVATE,,
0834411H,FRANCIS STREET OPHTHALMIC DAY PROCEDURE CENTRE,RICHMOND,NSW,2753,PRIVATE,,
0030460K,FRANKSTON HOSPITAL,FRANKSTON,VIC,3199,PUBLIC,,
0032190A,FRANKSTON PUBLIC SURGICAL CENTRE,FRANKSTON,VIC,3199,PUBLIC,,
0056250H,FRASER COAST HOSPICE,URRAWEEN,QLD,4655,PRIVATE,,
0070010W,FREMANTLE HOSPITAL AND HEALTH SERVICE,FREMANTLE,WA,6160,PUBLIC,,
0027490J,FRESENIUS LIVERPOOL PRIVATE DIALYSIS CLINIC,LIVERPOOL,NSW,2170,PRIVATE,,
0055190K,FRIENDLY SOCIETY PRIVATE HOSPITAL,BUNDABERG,QLD,4670,PRIVATE,,
0027590F,GATEWAY DAY HOSPITAL,SYDNEY,NSW,2000,PRIVATE,,
0051530W,GATTON HOSPITAL,GATTON,QLD,4343,PUBLIC,,
0060200F,GAWLER HEALTH SERVICE,GAWLER EAST,SA,5118,PUBLIC,,
0050460A,GAYNDAH HOSPITAL,GAYNDAH,QLD,4625,PUBLIC,,
0044330W,GEELONG DAY SURGERY,NORLANE,VIC,3214,PRIVATE,,
0095110H,GENEA CANBERRA,DEAKIN,ACT,2600,PRIVATE,,
0747341X,GENEA DAY SURGERY,SYDNEY,NSW,2000,PRIVATE,,
0026990X,GENEA LIVERPOOL,LIVERPOOL,NSW,2170,PRIVATE,,
0017340W,GENEA NORTHWEST,BELLA VISTA,NSW,2153,PRIVATE,,
0075680F,GENESIS CARE,JOONDALUP,WA,6027,PRIVATE,,
0027500A,GENESIS CARE RADIATION ONCOLOGY CENTRE ALBURY WODONGA,ALBURY,NSW,2640,PRIVATE,,
0044150Y,GENESIS CARE RADIATION ONCOLOGY CENTRE AT CABRINI,MALVERN,VIC,3144,PRIVATE,,
0044120F,GENESIS CARE RADIATION ONCOLOGY CENTRE ST VINCENT'S HOSPITAL MELBOURNE,FITZROY,VIC,3065,PRIVATE,,
0017730B,GENESISCARE CAMPBELLTOWN,CAMPBELLTOWN ,NSW,2560,PRIVATE ,,
0017350T,GENESISCARE FRENCHS FOREST,FRENCHS FOREST,NSW,2086,PRIVATE,,
0027570J,GENESISCARE HURSTVILLE,HURSTVILLE,NSW,2220,PRIVATE,,
0017610K ,GENESISCARE KINGSWOOD,KINGSWOOD,NSW,2747,PRIVATE,,
0027630L,GENESISCARE MAITLAND,EAST MAITLAND,NSW,2323,PRIVATE,,
0075740J,GENESISCARE MANDURAH,MANDURAH,WA,6210,PRIVATE,,
0027320F,GENESISCARE NORTH SHORE,ST LEONARDS,NSW,2065,PRIVATE,,
0037040X,GENESISCARE RADIATION ONCOLOGY CENTRE SHEPPARTON,SHEPPARTON,VIC,3630,PRIVATE,,
0080450Y,GEORGE TOWN HOSPITAL AND COMMUNITY CENTRE,GEORGE TOWN,TAS,7253,PUBLIC,,
0071130A,GERALDTON HOSPITAL,GERALDTON,WA,6530,PUBLIC,,
0899111T,GI CLINIC PERTH,MYAREE,WA,6154,PRIVATE,,
0037060T,GIH ACCESS ENDOSCOPY,OFFICER,VIC,3809,PRIVATE,,
0011230F,GILGANDRA MULTI PURPOSE SERVICE,GILGANDRA,NSW,2827,PUBLIC,,
0050480X,GIN GIN HOSPITAL,GIN GIN,QLD,4671,PUBLIC,,
0030580B,GIPPSLAND SOUTHERN HEALTH SERVICE - KORUMBURRA CAMPUS,KORUMBURRA,VIC,3950,PUBLIC,,
0031410L,GIPPSLAND SOUTHERN HEALTH SERVICE - LEONGATHA CAMPUS,LEONGATHA,VIC,3953,PUBLIC,,
0050490W,GLADSTONE HOSPITAL,GLADSTONE,QLD,4680,PUBLIC,,
0043710L,GLEN EIRA DAY SURGERY,CAULFIELD SOUTH,VIC,3162,PRIVATE,,
0011240B,GLEN INNES DISTRICT HOSPITAL,GLEN INNES,NSW,2370,PUBLIC,,
0043970T,GLEN IRIS PRIVATE,GLEN IRIS,VIC,3146,PRIVATE,,
0879791H,GLEN OSMOND SURGICENTRE,EASTWOOD,SA,5063,PRIVATE,,
0065110K,GLENELG COMMUNITY HOSPITAL,GLENELG SOUTH,SA,5045,PRIVATE,,
0657221Y,GLENELG DAY SURGERY,GLENELG,SA,5045,PRIVATE,,
0075410F,GLENGARRY PRIVATE HOSPITAL,DUNCRAIG,WA,6023,PRIVATE,,
0060870K,GLENSIDE CAMPUS,GLENSIDE,SA,5065,PUBLIC,,
0011250A,GLOUCESTER SOLDIERS MEMORIAL HOSPITAL,GLOUCESTER,NSW,2422,PUBLIC,,
0070330A,GNOWANGERUP HOSPITAL,GNOWANGERUP,WA,6335,PUBLIC,,
0057360T,GOLD COAST EYE HOSPITAL,ROBINA TOWN CENTRE,QLD,4230,PRIVATE,,
0055730Y,GOLD COAST PRIVATE HOSPITAL,SOUTHPORT,QLD,4215,PRIVATE,,
0051930A,GOLD COAST UNIVERSITY HOSPITAL,SOUTHPORT,QLD,4215,PUBLIC,,
0032080H,GOLF LINKS ROAD REHABILITATION CENTRE,FRANKSTON,VIC,3199,PUBLIC,,
0011260Y,GOODOOGA HOSPITAL,GOODOOGA,NSW,2831,PUBLIC,,
0070320B,GOOMALLING HOSPITAL,GOOMALLING,WA,6460,PUBLIC,,
0036910X,GOONAWARRA DAY HOSPITAL,SUNBURY,VIC,3429,PRIVATE,,
0050500J,GOONDIWINDI HOSPITAL,GOONDIWINDI,QLD,4390,PUBLIC,,
0017580A,GORDON PRIVATE HOSPITAL,GORDON,NSW,2072,PRIVATE,,
0050510H,GORDONVALE HOSPITAL,GORDONVALE,QLD,4865,PUBLIC,,
0011270X,GOSFORD HOSPITAL,GOSFORD,NSW,2250,PUBLIC,,
0016990L,GOSFORD PRIVATE HOSPITAL,GOSFORD,NSW,2250,PRIVATE,,
0011280W,GOULBURN BASE HOSPITAL,GOULBURN,NSW,2580,PUBLIC,,
0032090F,GOULBURN VALLEY HEALTH - CENTRE FOR OLDER PERSONS,SHEPPARTON,VIC,3630,PUBLIC,,
0030710J,GOULBURN VALLEY HEALTH - SHEPPARTON CAMPUS,SHEPPARTON,VIC,3630,PUBLIC,,
0030710J,GOULBURN VALLEY HEALTH - TATURA CAMPUS,TATURA,VIC,3616,PUBLIC,,
0031260K,GOULBURN VALLEY HEALTH - WARANGA CAMPUS,RUSHWORTH,VIC,3612,PUBLIC,,
0095050B,GOVE DISTRICT HOSPITAL,NHULUNBUY,NT,0880,PUBLIC,,
0011290T,GOWER WILSON MULTI PURPOSE SERVICE,LORD HOWE ISLAND,NSW,2398,PUBLIC,,
0011300H,GRAFTON BASE HOSPITAL,GRAFTON,NSW,2460,PUBLIC,,
0071590W,GRAYLANDS SELBY-LEMNOS & SPECIAL CARE HOSPITAL,MOUNT CLAREMONT,WA,6010,PUBLIC,,
0030620K,GREAT OCEAN ROAD HEALTH - LORNE COMMUNITY HOSPITAL,LORNE,VIC,3232,PUBLIC,,
0030040J,GREAT OCEAN ROAD HEALTH - OTWAY HEALTH,APOLLO BAY,VIC,3233,PUBLIC,,
0067210L,GREENHILL DENTAL DAY SURGERY,WAYVILLE,SA,5034,PRIVATE,,
0044180T,GREENSBOROUGH DAY SURGERY ,GREENSBOROUGH,VIC,3088,PRIVATE,,
0055860K,GREENSLOPES PRIVATE HOSPITAL,GREENSLOPES,QLD,4120,PRIVATE,,
0012510K,GREENWICH HOSPITAL,GREENWICH,NSW,2065,PUBLIC,,
0017630H,GREGORY HILLS RENAL CARE CENTRE,GREGORY HILL,NSW,2557,PRIVATE,,
0011320B,GRENFELL MULTI PURPOSE SERVICE,GRENFELL,NSW,2810,PUBLIC,,
0011340Y,GRIFFITH BASE HOSPITAL,GRIFFITH,NSW,2680,PUBLIC,,
0065120J,GRIFFITH REHABILITATION HOSPITAL,HOVE,SA,5048,PRIVATE,,
0011060H,GULARGAMBONE MULTI PURPOSE SERVICE,GULARGAMBONE,NSW,2828,PUBLIC,,
0011350X,GULGONG HEALTH SERVICE,GULGONG,NSW,2852,PUBLIC,,
0060210B,GUMERACHA HOSPITAL,GUMERACHA,SA,5233,PUBLIC,,
0011360W,GUNDAGAI DISTRICT HOSPITAL,GUNDAGAI,NSW,2722,PUBLIC,,
0011370T,GUNNEDAH DISTRICT HOSPITAL,GUNNEDAH,NSW,2380,PUBLIC,,
0011380L,GUYRA MULTI PURPOSE SERVICE,GUYRA,NSW,2365,PUBLIC,,
0050520F,GYMPIE HOSPITAL,GYMPIE,QLD,4570,PUBLIC,,
0037030Y,HABITAT THERAPEUTICS,NEWCOMB,VIC,3219,PRIVATE,,
0056230K,HADER CLINIC QUEENSLAND PRIVATE ,GYMPIE ,QLD,4570,PRIVATE,,
0070340Y,HALLS CREEK HOSPITAL,HALLS CREEK,WA,6770,PUBLIC,,
0027010X,HAMILTON DAY SURGERY CENTRE,HAMILTON SOUTH,NSW,2303,PRIVATE,,
0657401W,HAMILTON HOUSE DAY SURGERY,CUMBERLAND PARK,SA,5041,PRIVATE,,
0044230Y,HAMPTON DAY HOSPITAL ,HAMPTON EAST,VIC,3188,PRIVATE,,
0043900H,HAMPTON PARK WOMEN'S HEALTH CLINIC,HAMPTON PARK,VIC,3976,PRIVATE,,
0067320H,HARLEY DAY SURGERY,NORTH ADELAIDE,SA,5006,PRIVATE,,
0070350X,HARVEY DISTRICT HOSPITAL,HARVEY,WA,6220,PUBLIC,,
0060220A,HAWKER MEMORIAL HOSPITAL,HAWKER,SA,5434,PUBLIC,,
0012930L,HAWKESBURY DISTRICT HOSPITAL,WINDSOR,NSW,2756,PUBLIC,,
0011410A,HAY DISTRICT HOSPITAL,HAY,NSW,2711,PUBLIC,,
0030500X,HEALESVILLE & DISTRICT HOSPITAL,HEALESVILLE,VIC,3777,PUBLIC,,
0075610X,HEALTHE CARE MARIAN CENTRE,WEMBLEY,WA,6014,PRIVATE,,
0027110T,HEALTHWOODS ENDOSCOPY CENTRE,GRANVILLE,NSW,2142,PRIVATE,,
0030510W,HEATHCOTE HEALTH,HEATHCOTE,VIC,3523,PUBLIC,,
0071600J,HEDLAND HEALTH CAMPUS,SOUTH HEDLAND,WA,6722,PUBLIC,,
0899291W,HEIDELBERG ENDOSCOPY AND DAY SURGERY CENTRE,HEIDELBERG HEIGHTS,VIC,3081,PRIVATE,,
0011430X,HENTY MULTI PURPOSE SERVICE,HENTY,NSW,2658,PUBLIC,,
0050540A,HERBERTON HOSPITAL,HERBERTON,QLD,4887,PUBLIC,,
 0056260F,HERSTON PRIVATE HOSPITAL,BOWEN HILLS,QLD,4006,PRIVATE,,
0051440X,HERVEY BAY HOSPITAL,PIALBA,QLD,4655,PUBLIC,,
0056060L,HERVEY BAY SURGICAL HOSPITAL,PIALBA,QLD,4655,PRIVATE,,
0030100L,HESSE RURAL HEALTH SERVICE,WINCHELSEA,VIC,3241,PUBLIC,,
0035330B,HEYFIELD HOSPITAL INC,HEYFIELD,VIC,3858,PRIVATE,,
0030520T,HEYWOOD RURAL HEALTH,HEYWOOD,VIC,3304,PUBLIC,,
0055750W,HILLCREST - ROCKHAMPTON PRIVATE HOSPITAL,ROCKHAMPTON,QLD,4700,PRIVATE,,
0011440W,HILLSTON DISTRICT HOSPITAL,HILLSTON,NSW,2675,PUBLIC,,
0999271K,HOBART DAY SURGERY,HOBART,TAS,7000,PRIVATE,,
0085260J,HOBART EYE SURGEONS,HOBART,TAS,7000,PRIVATE,,
0085110A,HOBART PRIVATE HOSPITAL,HOBART,TAS,7001,PRIVATE,,
0087070Y,HOBART SPECIALIST DAY HOSPITAL,HOBART,TAS,7000,PRIVATE,,
0043380T,HOBSON BAY ENDOSCOPY,ALTONA,VIC,3018,PRIVATE,,
0044030H,HOBSON HEALTHCARE SYDENHAM,SYDENHAM,VIC,3037,PRIVATE,,
0043870X,HOBSON HEALTHCARE WERRIBEE,WERRIBEE,VIC,3030,PRIVATE,,
0011450T,HOLBROOK DISTRICT HOSPITAL,HOLBROOK,NSW,2644,PUBLIC,,
0075490K,HOLLYWOOD PRIVATE HOSPITAL,NEDLANDS,WA,6009,PRIVATE,,
0036350L,HOLMESGLEN PRIVATE HOSPITAL,MOORABBIN,VIC,3189,PRIVATE,,
0015500K,HOLROYD PRIVATE HOSPITAL,GUILDFORD,NSW,2161,PRIVATE,,
0050550Y,HOME HILL HOSPITAL,HOME HILL,QLD,4806,PUBLIC,,
0027560K,HONEYSUCKLE DAY HOSPITAL,NEWCASTLE,NSW,2300,PRIVATE,,
0056050T,HOPEWELL HOSPICE,ARUNDEL,QLD,4214,PRIVATE,,
0010140T,HORNSBY KU-RING-GAI HOSPITAL,HORNSBY,NSW,2077,PUBLIC,,
0067330F,HOVE DAY SURGERY,HOVE,SA,5048,PRIVATE,,
0050560X,HUGHENDEN HOSPITAL,HUGHENDEN,QLD,4821,PUBLIC,,
0056190B,HUMMINGBIRD HOUSE,CHERMSIDE,QLD,4032,PRIVATE,,
0012890F,HUNTER NEW ENGLAND MENTAL HEALTH SERVICE,WARATAH,NSW,2298,PUBLIC,,
0016490K,HUNTER VALLEY PRIVATE HOSPITAL,SHORTLAND,NSW,2307,PRIVATE,,
0015560Y,HUNTERS HILL PRIVATE HOSPITAL,HUNTERS HILL,NSW,2110,PRIVATE,,
0085230T,HUON REGIONAL CARE,FRANKLIN,TAS,7113,PUBLIC,,
0015570X,HURSTVILLE PRIVATE HOSPITAL,HURSTVILLE,NSW,2220,PRIVATE,,
0067150J,ICON CANCER CENTRE ADELAIDE,KURRALTA PARK,SA,5037,PRIVATE,,
0097060H,ICON CANCER CENTRE CANBERRA,BRUCE,ACT,2617,PRIVATE,,
0056080J,ICON CANCER CENTRE CHERMSIDE,CHERMSIDE,QLD,4032,PRIVATE,,
0037050W,ICON CANCER CENTRE GEELONG,WAURN PONDS,VIC,3216,PRIVATE,,
0087060A,ICON CANCER CENTRE HOBART,HOBART,TAS,7000,PRIVATE,,
0057510W,ICON CANCER CENTRE MACKAY,MACKAY,QLD,4740,PRIVATE,,
0077210X,ICON CANCER CENTRE MIDLAND,MIDLAND,WA,6056,PRIVATE,,
0044240X,ICON CANCER CENTRE MORELAND ,COBURG,VIC,3058,PRIVATE,,
0057450L,ICON CANCER CENTRE NORTH LAKES,NORTH LAKES,QLD,4509,PRIVATE,,
0027510Y,ICON CANCER CENTRE REVESBY,REVESBY,NSW,2212,PRIVATE,,
0077270H,ICON CANCER CENTRE ROCKINGHAM,ROCKINGHAM ,WA,6168,PRIVATE,,
0925691B,ICON CANCER CENTRE SOUTH BRISBANE,SOUTH BRISBANE,QLD,4101,PRIVATE,,
0057340X,ICON CANCER CENTRE SOUTHPORT,SOUTHPORT,QLD,4215,PRIVATE,,
0057400A,ICON CANCER CENTRE TOWNSVILLE,HYDE PARK,QLD,4812,PRIVATE,,
0895551A,ICON CANCER CENTRE WESLEY,AUCHENFLOWER,QLD,4066,PRIVATE,,
0067250F,ICON CANCER CENTRE WINDSOR GARDENS,WINDSOR GARDENS,SA,5087,PRIVATE,,
0026930J,ILLAWARRA PRIVATE CANCER CARE & RESEARCH CENTRE,WOLLONGONG,NSW,2500,PRIVATE,,
0044000L,IMAGING @ OLYMPIC PARK,MELBOURNE,VIC,3000,PRIVATE,,
0095140A,IMH DEAKIN PRIVATE HOSPITAL,DEAKIN,ACT,2600,PRIVATE,,
0015550A,IMH HIRONDELLE PRIVATE HOSPITAL,CHATSWOOD,NSW,2067,PRIVATE,,
0050570W,INGHAM HOSPITAL,INGHAM,QLD,4850,PUBLIC,,
0030530L,INGLEWOOD AND DISTRICT HEALTH SERVICE,INGLEWOOD,VIC,3517,PUBLIC,,
0050580T,INGLEWOOD MULTIPURPOSE HEALTH SERVICE,INGLEWOOD,QLD,4387,PUBLIC,,
0050590L,INJUNE HOSPITAL,INJUNE,QLD,4454,PUBLIC,,
0657041B,INNER WEST ENDOSCOPY CENTRE,MARRICKVILLE,NSW,2204,PRIVATE,,
0050600F,INNISFAIL HOSPITAL,INNISFAIL,QLD,4860,PUBLIC,,
0656151F,INSIGHT PRIVATE HOSPITAL,ALBURY,NSW,2640,PRIVATE,,
0011460L,INVERELL DISTRICT HOSPITAL,INVERELL,NSW,2360,PUBLIC,,
0999431K,IPSWICH DAY HOSPITAL,IPSWICH,QLD,4305,PRIVATE,,
0055950J,IPSWICH HOSPICE CARE,IPSWICH,QLD,4305,PRIVATE,,
0050610B,IPSWICH HOSPITAL,IPSWICH,QLD,4305,PUBLIC,,
0043400F,IVANHOE ENDOSCOPY CENTRE,IVANHOE,VIC,3079,PRIVATE,,
0011490H,IVANHOE HEALTH SERVICE,IVANHOE,NSW,2878,PUBLIC,,
0051970T,JACARANDA PLACE – QUEENSLAND ADOLESCENT EXTENDED TREATMENT CENTRE,CHERMSIDE,QLD,4032,PUBLIC,,
0060230Y,JAMESTOWN CAMPUS,JAMESTOWN,SA,5491,PUBLIC,,
0027540T,JAMISON STREET DAY SURGERY,SYDNEY,NSW,2000,PRIVATE,,
0050630Y,JANDOWAE HOSPITAL,JANDOWAE,QLD,4410,PUBLIC,,
0011500Y,JERILDERIE MULTI PURPOSE SERVICE,JERILDERIE,NSW,2716,PUBLIC,,
0035000Y,JESSIE MCPHERSON PRIVATE HOSPITAL,CLAYTON,VIC,3168,PRIVATE,,
0035850A,JOHN FAWKNER PRIVATE HOSPITAL,COBURG,VIC,3058,PRIVATE,,
0055820X,JOHN FLYNN PRIVATE HOSPITAL,TUGUN,QLD,4224,PRIVATE,,
0012790J,JOHN HUNTER HOSPITAL ROYAL NEWCASTLE CENTRE,NEW LAMBTON,NSW,2305,PUBLIC,,
0075530X,JOONDALUP HEALTH CAMPUS,JOONDALUP,WA,6027,PRIVATE,,
0051070H,JOYCE PALMER HEALTH SERVICE,PALM ISLAND,QLD,4816,PUBLIC,,
0050640X,JULIA CREEK MULTI-PURPOSE HEATH SERVICE,JULIA CREEK,QLD,4823,PUBLIC,,
0011510X,JUNEE MULTI PURPOSE SERVICE,JUNEE,NSW,2663,PUBLIC,,
0071270K,KALAMUNDA HOSPITAL,KALAMUNDA,WA,6076,PUBLIC,,
0071580X,KALBARRI HEALTH SERVICE,KALBARRI,WA,6536,PUBLIC,,
0075390T,KALEEYA HOSPITAL,EAST FREMANTLE,WA,6158,PUBLIC,,
0070370T,KALGOORLIE HEALTH CAMPUS,KALGOORLIE,WA,6430,PUBLIC,,
0060270L,KANGAROO ISLAND HEALTH SERVICE,KINGSCOTE,SA,5223,PUBLIC,,
0060820Y,KAPUNDA HOSPITAL,KAPUNDA,SA,5373,PUBLIC,,
0016510A,KAREENA PRIVATE HOSPITAL,CARINGBAH,NSW,2229,PRIVATE,,
0010150L,KARITANE,CARRAMAR,NSW,2163,PUBLIC,,
0060650A,KAROONDA AND DISTRICT SOLDIERS' MEMORIAL HOSPITAL,KAROONDA,SA,5307,PUBLIC,,
0071540F,KARRATHA HEALTH CAMPUS,KARRATHA,WA,6714,PUBLIC,,
0070380L,KATANNING HOSPITAL,KATANNING,WA,6317,PUBLIC,,
0095030H,KATHERINE HOSPITAL,KATHERINE,NT,0850,PUBLIC,,
0056070K,KAWANA PRIVATE HOSPITAL,BIRTINYA,QLD,4575,PRIVATE,,
0656671B,KEILOR PRIVATE,KEILOR,VIC,3036,PRIVATE,,
0070390K,KELLERBERRIN MEMORIAL HOSPITAL,KELLERBERRIN,WA,6410,PUBLIC,,
0011640J,KEMPSEY DISTRICT HOSPITAL,KEMPSEY,NSW,2440,PUBLIC,,
0030550J,KERANG DISTRICT HEALTH,KERANG,VIC,3579,PUBLIC,,
0043680B,KEW ENDOSCOPY CENTRE,KEW EAST,VIC,3102,PRIVATE,,
0050660T,KILCOY HOSPITAL,KILCOY,QLD,4515,PUBLIC,,
0070030L,KING EDWARD MEMORIAL HOSPITAL,SUBIACO,WA,6008,PUBLIC,,
0080130T,KING ISLAND DISTRICT HOSPITAL AND HEALTH CENTRE,CURRIE,TAS,7256,PUBLIC,,
0050670L,KINGAROY HOSPITAL & COMMUNITY HEALTH CENTRE,KINGAROY,QLD,4610,PUBLIC,,
0077040Y,KINGS PARK DAY HOSPITAL,WEST PERTH,WA,6005,PRIVATE,,
0658121W,KINGSGROVE DAY HOSPITAL,KINGSGROVE,NSW,2208,PRIVATE,,
0034170K,KINGSTON CENTRE,CHELTENHAM,VIC,3192,PUBLIC,,
0060280K,KINGSTON SOLDIERS' MEMORIAL HOSPITAL,KINGSTON,SA,5275,PUBLIC,,
0043650J,KNOX DAY HOSPITAL,BAYSWATER,VIC,3153,PRIVATE,,
0036610J,KNOX PRIVATE HOSPITAL,WANTIRNA,VIC,3152,PRIVATE,,
0027220J,KOGARAH PRIVATE HOSPITAL ,KOGARAH,NSW,2217,PRIVATE,,
0070400B,KOJONUP HOSPITAL,KOJONUP,WA,6395,PUBLIC,,
0070420Y,KONDININ HOSPITAL,KONDININ,WA,6367,PUBLIC,,
0031300X,KOOWEERUP REGIONAL HEALTH SERVICE,KOO WEE RUP,VIC,3981,PUBLIC,,
0070430X,KUNUNOPPIN HOSPITAL,KUNUNOPPIN,WA,6489,PUBLIC,,
0071050A,KUNUNURRA HOSPITAL,KUNUNURRA,WA,6743,PUBLIC,,
0011540L,KURRI KURRI DISTRICT HOSPITAL,KURRI KURRI,NSW,2327,PUBLIC,,
0030590A,KYABRAM & DISTRICT HEALTH SERVICES,KYABRAM,VIC,3620,PUBLIC,,
0011550K,KYOGLE MEMORIAL MULTI PURPOSE SERVICE,KYOGLE,NSW,2474,PUBLIC,,
0036790K,LA TROBE PRIVATE HOSPITAL,BUNDOORA,VIC,3083,PRIVATE,,
0056020Y,LADY BJELKE-PETERSEN COMMUNITY HOSPITAL,KINGAROY,QLD,4610,PRIVATE,,
0017160Y,LADY DAVIDSON PRIVATE HOSPITAL,NORTH TURRAMURRA,NSW,2074,PRIVATE,,
0050680K,LAIDLEY HOSPITAL,LAIDLEY,QLD,4341,PUBLIC,,
0011560J,LAKE CARGELLIGO MULTI PURPOSE SERVICE,LAKE CARGELLIGO,NSW,2672,PUBLIC,,
0070440W,LAKE GRACE HOSPITAL,LAKE GRACE,WA,6353,PUBLIC,,
0016750H,LAKE MACQUARIE PRIVATE HOSPITAL,GATESHEAD,NSW,2290,PRIVATE,,
0017510T,LAKEVIEW PRIVATE HOSPITAL ,NORWEST,NSW,2153,PRIVATE,,
0060290J,LAMEROO HEALTH SERVICES,LAMEROO,SA,5302,PUBLIC,,
0031210Y,LATROBE REGIONAL HOSPITAL,TRARALGON,VIC,3844,PUBLIC,,
0080070K,LAUNCESTON GENERAL HOSPITAL,LAUNCESTON,TAS,7250,PUBLIC,,
0060700H,LAURA CAMPUS,LAURA,SA,5480,PUBLIC,,
0070450T,LAVERTON HOSPITAL,LAVERTON,WA,6440,PUBLIC,,
0011570H,LEETON DISTRICT HOSPITAL,LEETON,NSW,2705,PUBLIC,,
0060750X,LEIGH CREEK HEALTH SERVICES,LEIGH CREEK,SA,5731,PUBLIC,,
0070460L,LEONORA HOSPITAL,LEONORA,WA,6438,PUBLIC,,
0097080B,LEVANT CLINIC CANBERRA,BRUCE,ACT,2617,PRIVATE,,
0027550L,LEVANT COSMETIC DAY SURGERY RANDWICK,RANDWICK,NSW,2031,PRIVATE,,
0056280A,LEVANT GOLD COAST DAY HOSPITAL,SOUTHPORT,QLD,4215,PRIVATE,,
0067230J,LIFT CANCER CARE SERVICES,KURRALTA PARK,SA,5037,PRIVATE,,
0012850L,LIGHTNING RIDGE MULTIPURPOSE HEALTH SERVICE,LIGHTNING RIDGE,NSW,2834,PUBLIC,,
0036410W,LINACRE PRIVATE HOSPITAL,HAMPTON,VIC,3188,PRIVATE,,
0027070H,LINDFIELD RENAL CARE CENTRE ,LINDFIELD,NSW,2070,PRIVATE,,
0016780A,LINGARD PRIVATE HOSPITAL,MEREWETHER,NSW,2291,PRIVATE,,
0926581A,LIONS EYE INSTITUTE DAY SURGERY CENTRE,NEDLANDS,WA,6009,PRIVATE,,
0011590B,LISMORE BASE HOSPITAL,LISMORE,NSW,2480,PUBLIC,,
0011590B,LISMORE BASE HOSPITAL - RIVERLANDS DRUG & ALCOHOL SERVICE,LISMORE,NSW,2480,PUBLIC,,
0017210F,LITHGOW COMMUNITY PRIVATE HOSPITAL,LITHGOW,NSW,2790,PRIVATE,,
0011600W,LITHGOW HOSPITAL,LITHGOW,NSW,2790,PUBLIC,,
0657411T,LIVERPOOL DAY SURGERY,MOOREBANK,NSW,2170,PRIVATE,,
0027300J,LIVERPOOL EYE SURGERY,LIVERPOOL,NSW,2170,PRIVATE,,
0010200X,LIVERPOOL HOSPITAL,LIVERPOOL,NSW,2170,PUBLIC,,
0011610T,LOCKHART & DISTRICT HOSPITAL,LOCKHART,NSW,2656,PUBLIC,,
0057190W,LOGAN ENDOSCOPY SERVICES,BROWNS PLAINS,QLD,4118,PRIVATE,,
0051740H,LOGAN HOSPITAL,MEADOWBROOK,QLD,4131,PUBLIC,,
0012680T,LONG JETTY HEALTH CARE FACILITY,KILLARNEY VALE,NSW,2261,PUBLIC,,
0050690J,LONGREACH HOSPITAL,LONGREACH,QLD,4730,PUBLIC,,
0016830H,LONGUEVILLE PRIVATE HOSPITAL,LONGUEVILLE,NSW,2066,PRIVATE,,
0012840T,LOURDES HOSPITAL & COMMUNITY SERVICES,DUBBO,NSW,2830,PUBLIC,,
0060300A,LOXTON HOSPITAL COMPLEX,LOXTON,SA,5333,PUBLIC,,
0060680W,LYELL MCEWIN HOSPITAL,ELIZABETH VALE,SA,5112,PUBLIC,,
0050700A,MACKAY BASE HOSPITAL,MACKAY,QLD,4740,PUBLIC,,
0056120W,MACKAY PRIVATE HOSPITAL,MOUNT PLEASANT,QLD,4740,PRIVATE,,
0057120J,MACKAY SPECIALIST DAY HOSPITAL,NORTH MACKAY,QLD,4740,PRIVATE,,
0011820F,MACKSVILLE DISTRICT HOSPITAL,NORTH MACKSVILLE,NSW,2447,PUBLIC,,
0011630K,MACLEAN DISTRICT HOSPITAL,MACLEAN,NSW,2463,PUBLIC,,
0012910W,MACQUARIE HOSPITAL,NORTH RYDE,NSW,2113,PUBLIC,,
0027280X,MACQUARIE ST DAY SURGERY,SYDNEY,NSW,2000,PRIVATE,,
0017360L,MACQUARIE UNIVERSITY HOSPITAL,MACQUARIE PARK,NSW,2109,PRIVATE,,
0027150H,MADISON DAY SURGERY,HORNSBY,NSW,2077,PRIVATE,,
0011650H,MAITLAND HOSPITAL (NSW),METFORD,NSW,2323,PUBLIC,,
0060310Y,MAITLAND HOSPITAL (SA),MAITLAND,SA,5573,PUBLIC,,
0017250X,MAITLAND PRIVATE HOSPITAL,EAST MAITLAND,NSW,2323,PRIVATE,,
0034840K,MALDON HOSPITAL,MALDON,VIC,3463,PUBLIC,,
0050710Y,MALENY HOSPITAL,MALENY,QLD,4552,PUBLIC,,
0030880L,MALLEE TRACK HEALTH AND COMMUNITY SERVICE,OUYEN,VIC,3490,PUBLIC,,
0043760B,MALVERN DIALYSIS CLINIC,MALVERN,VIC,3144,PRIVATE,,
0035480K,MALVERN PRIVATE HOSPITAL,MALVERN EAST,VIC,3145,PRIVATE,,
0011670B,MANILLA HEALTH SERVICE,MANILLA,NSW,2346,PUBLIC,,
0016690B,MANLY WATERS PRIVATE HOSPITAL,MANLY,NSW,2095,PRIVATE,,
0011680A,MANNING RURAL REFERRAL HOSPITAL (TAREE),TAREE,NSW,2430,PUBLIC,,
0043820H,MANNINGHAM PRIVATE HOSPITAL,TEMPLESTOWE LOWER,VIC,3107,PRIVATE,,
0060320X,MANNUM DISTRICT HOSPITAL,MANNUM,SA,5238,PUBLIC,,
0030670A,MANSFIELD DISTRICT HOSPITAL,MANSFIELD,VIC,3722,PUBLIC,,
0050730W,MAREEBA HOSPITAL,MAREEBA,QLD,4880,PUBLIC,,
0070490H,MARGARET RIVER HOSPITAL,MARGARET RIVER,WA,6285,PUBLIC,,
0031650X,MAROONDAH HOSPITAL,RINGWOOD EAST,VIC,3135,PUBLIC,,
0838221B,MARSDEN EYE SURGERY CENTRE,PARRAMATTA,NSW,2150,PRIVATE,,
0030370L,MARYBOROUGH DISTRICT HEALTH SERVICE (DUNOLLY),DUNOLLY,VIC,3472,PUBLIC,,
0030680Y,MARYBOROUGH DISTRICT HEALTH SERVICE (MARYBOROUGH),MARYBOROUGH,VIC,3465,PUBLIC,,
0050740T,MARYBOROUGH HOSPITAL,MARYBOROUGH,QLD,4650,PUBLIC,,
0036630F,MARYVALE PRIVATE HOSPITAL,MORWELL,VIC,3840,PRIVATE,,
0036390F,MASADA PRIVATE HOSPITAL,EAST ST KILDA,VIC,3183,PRIVATE,,
0050750L,MATER ADULT HOSPITAL,SOUTH BRISBANE,QLD,4101,PUBLIC,,
0015790H,MATER HOSPITAL SYDNEY,NORTH SYDNEY,NSW,2060,PRIVATE,,
0050790F,MATER MOTHER'S HOSPITAL,SOUTH BRISBANE,QLD,4101,PUBLIC,,
0057490F,MATER PRIVATE DAY HOSPITAL BROOKWATER,BROOKWATER,QLD,4300,PRIVATE,,
0055850L,MATER PRIVATE HOSPITAL (SOUTH BRISBANE),SOUTH BRISBANE,QLD,4101,PRIVATE,,
0055330T,MATER PRIVATE HOSPITAL BUNDABERG,BUNDABERG,QLD,4670,PRIVATE,,
0055340L,MATER PRIVATE HOSPITAL MACKAY,NORTH MACKAY,QLD,4740,PRIVATE,,
0881091W,MATER PRIVATE HOSPITAL MACKAY (WELLINGTON STREET CAMPUS),MACKAY,QLD,4740,PRIVATE,,
0055970F,MATER PRIVATE HOSPITAL REDLAND,CLEVELAND,QLD,4163,PRIVATE,,
0055350K,MATER PRIVATE HOSPITAL ROCKHAMPTON,ROCKHAMPTON,QLD,4700,PRIVATE,,
0056160J,MATER PRIVATE HOSPITAL SPRINGFIELD,SPRINGFIELD CENTRAL,QLD,4300,PRIVATE,,
0055360J,MATER PRIVATE HOSPITAL TOWNSVILLE,PIMLICO,QLD,4810,PRIVATE,,
0055400W,MATER PRIVATE HOSPITAL TOWNSVILLE (HYDE PARK CAMPUS),HYDE PARK,QLD,4812,PRIVATE,,
0055110F,MATER WOMEN'S & CHILDREN'S PRIVATE HEALTH SERVICES,SOUTH BRISBANE,QLD,4101,PRIVATE,,
0017680X,MATILDA NEPEAN PRIVATE HOSPITAL,KINGSWOOD,NSW,2747,PRIVATE,,
0085190H,MAY SHAW HEALTH CENTRE,SWANSEA,TAS,7190,PUBLIC,,
0015810X,MAYO PRIVATE HOSPITAL,TAREE,NSW,2430,PRIVATE,,
0077000H,MCCOURT STREET DAY SURGERY,WEST LEEDERVILLE,WA,6007,PRIVATE,,
0070500Y,MEEKATHARRA HOSPITAL,MEEKATHARRA,WA,6642,PUBLIC,,
0930981W,MELBOURNE DAY SURGERY CENTRE,CAULFIELD SOUTH,VIC,3162,PRIVATE,,
0656392Y,MELBOURNE ENDOSCOPY MONASH DAY PROCEDURE CENTRE,CLAYTON,VIC,3168,PRIVATE,,
0036700H,MELBOURNE PRIVATE HOSPITAL,PARKVILLE,VIC,3052,PRIVATE,,
0065240A,MEMORIAL HOSPITAL,NORTH ADELAIDE,SA,5006,PRIVATE,,
0060660Y,MENINGIE HOSPITAL,MENINGIE,SA,5264,PUBLIC,,
0011710K,MERCY CARE HOSPITAL - YOUNG,YOUNG,NSW,2594,PUBLIC,,
0031550A,MERCY HEALTH - O'CONNELL FAMILY CENTRE CAMPUS,CANTERBURY,VIC,3126,PUBLIC,,
0011690Y,MERCY HEALTH SERVICE,ALBURY,NSW,2640,PUBLIC,,
0031610F,MERCY HOSPITAL FOR WOMEN,HEIDELBERG,VIC,3084,PUBLIC,,
0070510X,MERREDIN HOSPITAL,MERREDIN,WA,6415,PUBLIC,,
0011720J,MERRIWA MULTI PURPOSE SERVICE,MERRIWA,NSW,2329,PUBLIC,,
0085170K,MERSEY COMMUNITY HOSPITAL,LATROBE,TAS,7307,PUBLIC,,
0656411A,METWEST SURGICAL,BLACKTOWN,NSW,2148,PRIVATE,,
0057440T,MIAMI PRIVATE HOSPITAL,MIAMI,QLD,4220,PRIVATE,,
0085180J,MIDLANDS MULTI PURPOSE HEALTH CENTRE,OATLANDS,TAS,7120,PUBLIC,,
0036820Y,MILDURA BASE PUBLIC HOSPITAL,MILDURA,VIC,3500,PUBLIC,,
0036600K,MILDURA HEALTH PRIVATE HOSPITAL,MILDURA,VIC,3500,PRIVATE,,
0050870F,MILES HOSPITAL,MILES,QLD,4415,PUBLIC,,
0060340T,MILLICENT AND DISTRICT HOSPITAL AND HEALTH SERVICES,MILLICENT,SA,5280,PUBLIC,,
0050880B,MILLMERRAN HOSPITAL,MILLMERRAN,QLD,4357,PUBLIC,,
0011740F,MILTON ULLADULLA HOSPITAL,MILTON,NSW,2538,PUBLIC,,
0017000T,MINCHINBURY COMMUNITY PRIVATE HOSPITAL,MOUNT DRUITT,NSW,2040,PRIVATE,,
0056270B,MINIMALLY INVASIVE SURGERY CENTRE,SOUTHPORT,QLD,4215,PRIVATE,,
0027290W,MIRANDA DAY SURGERY,MIRANDA,NSW,2228,PRIVATE,,
0990491F,MIRANDA EYE SURGICAL CENTRE,MIRANDA,NSW,2228,PRIVATE,,
0036090W,MITCHAM PRIVATE HOSPITAL,MITCHAM,VIC,3132,PRIVATE,,
0050890A,MITCHELL HOSPITAL,MITCHELL,QLD,4465,PUBLIC,,
0060690T,MODBURY HOSPITAL,MODBURY,SA,5092,PUBLIC,,
0017420W,MOGO DAY SURGERY,MOGO,NSW,2536,PRIVATE,,
0011750B,MOLONG HEALTH SERVICE,MOLONG,NSW,2866,PUBLIC,,
0012470B,MONA VALE HOSPITAL,MONA VALE,NSW,2103,PUBLIC,,
0032150J,MONASH HEALTH COMMUNITY,DANDENONG,VIC,3175,PUBLIC,,
0032210L,MONASH HEALTH WOMEN'S SANDRINGHAM,SANDRINGHAM,VIC,3191,PUBLIC,,
0037100A,MONASH HEART PRIVATE OPERATED BY JESSIE MCPHERSON PRIVATE HOSPITAL,CLAYTON,VIC,3168,PRIVATE,,
0036960J,MONASH HOUSE PRIVATE HOSPITAL,CLAYTON,VIC,3168,PRIVATE,,
0027600X,MONASH IVF SYDNEY CBD,SYDNEY,NSW,2000,PRIVATE,,
0030970K,MONASH MEDICAL CENTRE - CLAYTON CAMPUS,CLAYTON,VIC,3168,PUBLIC,,
0030970K,MONASH MEDICAL CENTRE - MOORABBIN CAMPUS,BENTLEIGH EAST,VIC,3165,PUBLIC,,
0036670X,MONASH SURGICAL PRIVATE HOSPITAL,CLAYTON,VIC,3168,PRIVATE,,
0050900T,MONTO HOSPITAL,MONTO,QLD,4630,PUBLIC,,
0070540L,MOORA HOSPITAL,MOORA,WA,6510,PUBLIC,,
0051580H,MORANBAH HOSPITAL,MORANBAH,QLD,4744,PUBLIC,,
0070560J,MORAWA HOSPITAL,MORAWA,WA,6623,PUBLIC,,
0011760A,MOREE DISTRICT HOSPITAL,MOREE,NSW,2400,PUBLIC,,
0057000W,MORETON DAY HOSPITAL,NORTH LAKES,QLD,4509,PRIVATE,,
0044060A,MORNINGTON ENDOSCOPY,MORNINGTON,VIC,3931,PRIVATE,,
0051620T,MORNINGTON ISLAND HOSPITAL,MORNINGTON ISLAND,QLD,4871,PUBLIC,,
0011780X,MORUYA DISTRICT HOSPITAL,MORUYA,NSW,2537,PUBLIC,,
0050910L,MOSSMAN HOSPITAL (DOUGLAS SHIRE MULTI PURPOSE HEALTH SERVICE),MOSSMAN,QLD,4873,PUBLIC,,
0060360K,MOUNT BARKER DISTRICT SOLDIERS MEMORIAL HOSPITAL,MOUNT BARKER,SA,5251,PUBLIC,,
0012780K,MOUNT DRUITT HOSPITAL,MOUNT DRUITT,NSW,2770,PUBLIC,,
0031700B,MOUNT ELIZA CENTRE,MOUNT ELIZA,VIC,3930,PUBLIC,,
0060370J,MOUNT GAMBIER AND DISTRICTS HEALTH SERVICE,MOUNT GAMBIER,SA,5290,PUBLIC,,
0075420B,MOUNT HOSPITAL,PERTH,WA,6000,PRIVATE,,
0050930J,MOUNT ISA  HOSPITAL,MOUNT ISA,QLD,4825,PUBLIC,,
0050950F,MOUNT MORGAN HOSPITAL,MOUNT MORGAN,QLD,4714,PUBLIC,,
0060380H,MOUNT PLEASANT HOSPITAL,MOUNT PLEASANT,SA,5235,PUBLIC,,
0051560K,MOURA HOSPITAL,MOURA,QLD,4718,PUBLIC,,
0030900B,MOYNE HEALTH SERVICES,PORT FAIRY,VIC,3284,PUBLIC,,
0057170Y,MSI BRISBANE,BOWEN HILLS,QLD,4006,PRIVATE,,
0097020T,MSI CANBERRA,CANBERRA CITY,ACT,2601,PRIVATE,,
0043490J,MSI MELBOURNE,ELWOOD,VIC,3184,PRIVATE,,
0077050X,MSI PERTH,MIDLAND,WA,6056,PRIVATE,,
0657961H,MSI SYDNEY WEST,WESTMEAD,NSW,2145,PRIVATE,,
0015020F,MT WILGA PRIVATE HOSPITAL,HORNSBY,NSW,2077,PRIVATE,,
0011790W,MUDGEE HEALTH SERVICE,MUDGEE,NSW,2850,PUBLIC,,
0657101H,MUGGA WARA ENDOSCOPY CENTRE,GARRAN,ACT,2605,PRIVATE,,
0036580Y,MULGRAVE PRIVATE HOSPITAL,MULGRAVE,VIC,3170,PRIVATE,,
0070570H,MULLEWA HOSPITAL,MULLEWA,WA,6630,PUBLIC,,
0050980Y,MUNDUBBERA MULTIPURPOSE HEALTH SERVICE ,MUNDUBBERA,QLD,4626,PUBLIC,,
0050990X,MUNGINDI HOSPITAL,MUNGINDI,QLD,2406,PUBLIC,,
0077020B,MURDOCH SURGICENTRE,MURDOCH,WA,6150,PRIVATE,,
0051000Y,MURGON HOSPITAL,MURGON,QLD,4605,PUBLIC,,
0060390F,MURRAY BRIDGE SOLDIERS MEMORIAL HOSPITAL,MURRAY BRIDGE,SA,5253,PUBLIC,,
0070670B,MURRAY DISTRICT HOSPITAL,PINJARRA,WA,6208,PUBLIC,,
0036780L,MURRAY VALLEY PRIVATE HOSPITAL,WODONGA,VIC,3690,PRIVATE,,
0011810H,MURRUMBAH-HARDEN HOSPITAL,HARDEN,NSW,2587,PUBLIC,,
0012210A,MURWILLUMBAH DISTRICT HOSPITAL,MURWILLUMBAH,NSW,2484,PUBLIC,,
0010800W,MUSWELLBROOK HOSPITAL,MUSWELLBROOK,NSW,2333,PUBLIC,,
0057250Y,NAMBOUR DAY SURGERY,NAMBOUR,QLD,4560,PRIVATE,,
0051020W,NAMBOUR GENERAL HOSPITAL,NAMBOUR,QLD,4560,PUBLIC,,
0055470B,NAMBOUR SELANGOR PRIVATE HOSPITAL,NAMBOUR,QLD,4560,PRIVATE,,
0051030T,NANANGO HOSPITAL,NANANGO,QLD,4615,PUBLIC,,
0070630K,NANNUP HOSPITAL,NANNUP,WA,6275,PUBLIC,,
0060400X,NARACOORTE HEALTH SERVICE,NARACOORTE,SA,5271,PUBLIC,,
0070590B,NAREMBEEN HOSPITAL,NAREMBEEN,WA,6369,PUBLIC,,
0011830B,NARRABRI DISTRICT HOSPITAL,NARRABRI,NSW,2390,PUBLIC,,
0011840A,NARRANDERA HOSPITAL,NARRANDERA,NSW,2700,PUBLIC,,
0070600W,NARROGIN HOSPITAL,NARROGIN,WA,6312,PUBLIC,,
0011850Y,NARROMINE HOSPITAL & COMMUNITY HEALTH,NARROMINE,NSW,2821,PUBLIC,,
0030800H,NATHALIA DISTRICT HOSPITAL,NATHALIA,VIC,3638,PUBLIC,,
0095100J,NATIONAL CAPITAL PRIVATE HOSPITAL,GARRAN,ACT,2605,PRIVATE,,
0035660H,NEERIM HEALTH,NEERIM SOUTH,VIC,3831,PRIVATE,,
0011860X,NEPEAN HOSPITAL,KINGSWOOD,NSW,2747,PUBLIC,,
0016580J,NEPEAN PRIVATE HOSPITAL,KINGSWOOD,NSW,2747,PRIVATE,,
0077260J,NEPHROCARE MIDLAND DIALYSIS CLINIC,MIDLAND,WA,6056,PRIVATE,,
0017380J,NEPHROCARE NEWCASTLE DIALYSIS CLINIC,NEWCASTLE,NSW,2300,PRIVATE,,
0010130W,NERINGAH HOSPITAL,WAHROONGA,NSW,2076,PUBLIC,,
0044190L,NEW AGE DENTAL,BUNDOORA,VIC,3083,PRIVATE,,
0080160J,NEW NORFOLK DISTRICT HOSPITAL,NEW NORFOLK,TAS,7140,PUBLIC,,
0027360X,NEWCASTLE ENDOSCOPY CENTRE,CHARLESTOWN,NSW,2290,PRIVATE,,
0874031Y,NEWCASTLE EYE HOSPITAL,WARATAH,NSW,2298,PRIVATE,,
0017050F,NEWCASTLE PRIVATE HOSPITAL,NEW LAMBTON HEIGHTS,NSW,2305,PRIVATE,,
0071180L,NEWMAN HOSPITAL,NEWMAN,WA,6753,PUBLIC,,
0075140K,NGALA FAMILY SERVICES,KENSINGTON,WA,6151,PRIVATE,,
0011890L,NIMBIN MULTI PURPOSE SERVICE,NIMBIN,NSW,2480,PUBLIC,,
0060850T,NOARLUNGA HEALTH SERVICE,NOARLUNGA CENTRE,SA,5168,PUBLIC,,
0893841H,NOBLE PARK ENDOSCOPY CENTRE,NOBLE PARK,VIC,3174,PRIVATE,,
0055930L,NOOSA HOSPITAL,NOOSAVILLE,QLD,4566,PRIVATE,,
0057100L,NOOSA SURGICAL & ENDOSCOPY CENTRE,NOOSAVILLE,QLD,4566,PRIVATE,,
0051040L,NORMANTON HOSPITAL,NORMANTON,QLD,4890,PUBLIC,,
0070610T,NORSEMAN HOSPITAL,NORSEMAN,WA,6443,PUBLIC,,
0873741Y,NORTH ADELAIDE DAY SURGERY CENTRE,NORTH ADELAIDE,SA,5006,PRIVATE,,
0090040A,NORTH CANBERRA HOSPITAL,BRUCE,ACT,2617,PUBLIC,,
0065770X,NORTH EASTERN COMMUNITY HOSPITAL,CAMPBELLTOWN,SA,5074,PRIVATE,,
0035050K,NORTH EASTERN REHABILITATION CENTRE,IVANHOE,VIC,3079,PRIVATE,,
0080190B,NORTH EASTERN SOLDIERS MEMORIAL HOSPITAL,SCOTTSDALE,TAS,7260,PUBLIC,,
0057380K,NORTH LAKES DAY HOSPITAL,NORTH LAKES,QLD,4509,PRIVATE,,
0036880J,NORTH MELBOURNE RENAL CARE CENTRE,NORTH MELBOURNE,VIC,3051,PRIVATE,,
0070730H,NORTH MIDLANDS HOSPITAL,THREE SPRINGS,WA,6519,PUBLIC,,
0999721A,NORTH QUEENSLAND DAY SURGICAL CENTRE,PIMLICO,QLD,4812,PRIVATE,,
0017200H,NORTH SHORE PRIVATE HOSPITAL,ST LEONARDS,NSW,2065,PRIVATE,,
0027230H,NORTH SHORE SPECIALIST DAY HOSPITAL,GREENWICH,NSW,2065,PRIVATE,,
0085240L,NORTH TAS DAY HOSPITAL,LAUNCESTON,TAS,7250,PRIVATE,,
0894521T,NORTH WEST DAY HOSPITAL,ASCOT VALE,VIC,3032,PRIVATE,,
0055800A,NORTH WEST PRIVATE HOSPITAL (QLD),EVERTON PARK,QLD,4053,PRIVATE,,
0085000H,NORTH WEST PRIVATE HOSPITAL (TAS),BURNIE,TAS,7320,PRIVATE,,
0080400J,NORTH WEST REGIONAL HOSPITAL,BURNIE,TAS,7320,PUBLIC,,
0071190K,NORTHAM HOSPITAL,NORTHAM,WA,6401,PUBLIC,,
0070640J,NORTHAMPTON HOSPITAL,NORTHAMPTON,WA,6535,PUBLIC,,
0031250L,NORTHEAST HEALTH WANGARATTA,WANGARATTA,VIC,3677,PUBLIC,,
0017590Y,NORTHERN BEACHES HOSPITAL,FRENCHS FOREST,NSW,2086,PRIVATE,,
0834441A,NORTHERN ENDOSCOPY CENTRE,SALISBURY SOUTH,SA,5106,PRIVATE,,
0037120X,NORTHERN PRIVATE HOSPITAL,EPPING,VIC,3076,PRIVATE,,
0036530J,NORTHPARK PRIVATE HOSPITAL,BUNDOORA,VIC,3083,PRIVATE,,
0016870Y,NORWEST PRIVATE HOSPITAL,BELLA VISTA,NSW,2153,PRIVATE,,
0067280Y,NORWOOD DAY SURGERY,STEPNEY,SA,5069,PRIVATE,,
0044270L,NOTTING HILL CITY HEALTH DAY HOSPITAL,NOTTING HILL,VIC,3168,PRIVATE,,
0016970W,NOWRA PRIVATE HOSPITAL,NOWRA,NSW,2541,PRIVATE,,
0096000F,NT MEDICAL SPECIALIST,WANGURI,NT,0810,PRIVATE,,
0030830A,NUMURKAH DISTRICT HEALTH SERVICE,NUMURKAH,VIC,3636,PUBLIC,,
0011900F,NYNGAN MULTI PURPOSE SERVICE,NYNGAN,NSW,2825,PUBLIC,,
0051050K,OAKEY HOSPITAL,OAKEY,QLD,4401,PUBLIC,,
0011910B,OBERON MULTI PURPOSE SERVICE,OBERON,NSW,2787,PUBLIC,,
0030850X,OMEO DISTRICT HEALTH,OMEO,VIC,3898,PUBLIC,,
0070650H,ONSLOW HEALTH SERVICE,ONSLOW,WA,6710,PUBLIC,,
0657451H,ORANGE EYE CENTRE,ORANGE,NSW,2800,PRIVATE,,
0011920A,ORANGE HEALTH SERVICE,ORANGE,NSW,2800,PUBLIC,,
0030860W,ORBOST REGIONAL HEALTH,ORBOST,VIC,3888,PUBLIC,,
0067140K,OROMAX DAY SURGERY,KENT TOWN,SA,5067,PRIVATE,,
0060410W,ORROROO CAMPUS,ORROROO,SA,5431,PUBLIC,,
0071030F,OSBORNE PARK HOSPITAL,STIRLING,WA,6021,PUBLIC,,
0077110A,OXFORD DAY SURGERY,MOUNT HAWTHORN,WA,6016,PRIVATE,,
0057070B,PACIFIC DAY SURGERY CENTRE,FORTITUDE VALLEY,QLD,4006,PRIVATE,,
0055980B,PACIFIC PRIVATE HOSPITAL,SOUTHPORT,QLD,4215,PRIVATE,,
0032160H,PAKENHAM HEALTH CENTRE,PAKENHAM,VIC,3810,PUBLIC,,
0092000T,PALMERSTON REGIONAL HOSPITAL,HOLTZE,NT,0829,PUBLIC,,
0011930Y,PAMBULA DISTRICT HOSPITAL,PAMBULA,NSW,2549,PUBLIC,,
0044100J,PANCH DAY SURGERY CENTRE,PRESTON,VIC,3073,PRIVATE,,
0032100X,PANCH HEALTH SERVICE,PRESTON,VIC,3072,PUBLIC,,
0071240W,PARABURDOO HOSPITAL,PARABURDOO,WA,6754,PUBLIC,,
0044220A,PARAS CLINIC ,MELBOURNE,VIC,3000,PRIVATE,,
0011940X,PARKES DISTRICT HOSPITAL,PARKES,NSW,2870,PUBLIC,,
0067000A,PARKVIEW DAY SURGERY,EASTWOOD,SA,5063,PRIVATE,,
0027430Y,PARRAMATTA EYE CENTRE,PARRAMATTA,NSW,2150,PRIVATE,,
0044300A,PASO INFUSION CENTRE,FRANKSTON,VIC,3199,PRIVATE,,
0067040T,PAYNEHAM DIALYSIS CLINIC,PAYNEHAM,SA,5070,PRIVATE,,
0011950W,PEAK HILL HEALTH SERVICE,PEAK HILL,NSW,2869,PUBLIC,,
0075560L,PEEL HEALTH CAMPUS - PRIVATE,MANDURAH,WA,6210,PRIVATE,,
0070100T,PEEL HEALTH CAMPUS - PUBLIC,MANDURAH,WA,6210,PUBLIC,,
0070660F,PEMBERTON HOSPITAL,PEMBERTON,WA,6260,PUBLIC,,
0055790J,PENINSULA PRIVATE HOSPITAL (QLD),KIPPA-RING,QLD,4021,PRIVATE,,
0036510L,PENINSULA PRIVATE HOSPITAL (VIC),FRANKSTON,VIC,3199,PRIVATE,,
0017230A,PENINSULA SLEEP CLINIC,FRENCHS FOREST,NSW,2086,PRIVATE,,
0657211A,PENNANT HILLS DAY SURGERY,PENNANT HILLS,NSW,2120,PRIVATE,,
0060420T,PENOLA WAR MEMORIAL HOSPITAL,PENOLA,SA,5277,PUBLIC,,
0071620F,PERTH CHILDREN’S HOSPITAL ,NEDLANDS,WA,6009,PUBLIC,,
0075550T,PERTH CLINIC,WEST PERTH,WA,6005,PRIVATE,,
0077060W,PERTH DAY SURGERY CENTRE,LEEDERVILLE,WA,6007,PRIVATE,,
0077180J,PERTH DERMATOLOGY CLINIC,PERTH,WA,6000,PRIVATE,,
0656511X,PERTH EYE HOSPITAL,WEST PERTH,WA,6005,PRIVATE,,
0031750T,PETER JAMES CENTRE,FOREST HILL,VIC,3131,PUBLIC,,
0030190W,PETER MACCALLUM CANCER CENTRE,EAST MELBOURNE,VIC,3002,PUBLIC,,
0060430L,PETERBOROUGH CAMPUS,PETERBOROUGH,SA,5422,PUBLIC,,
0925491K,PINDARA DAY PROCEDURE CENTRE,BENOWA,QLD,4217,PRIVATE,,
0055600J,PINDARA PRIVATE HOSPITAL,BENOWA,QLD,4217,PRIVATE,,
0055830W,PINE RIVERS PRIVATE HOSPITAL,STRATHPINE,QLD,4500,PRIVATE,,
0070680A,PINGELLY HEALTH CENTRE,PINGELLY,WA,6308,PUBLIC,,
0060440K,PINNAROO SOLDIERS' MEMORIAL HOSPITAL,PINNAROO,SA,5304,PUBLIC,,
0027020W,PITTWATER DAY SURGERY,MONA VALE,NSW,2103,PRIVATE,,
0070550K,PLANTAGENET HOSPITAL,MOUNT BARKER,WA,6324,PUBLIC,,
0060450J,PORT AUGUSTA HOSPITAL,PORT AUGUSTA,SA,5700,PUBLIC,,
0060720B,PORT BROUGHTON DISTRICT HOSPITAL AND HEALTH SERVICES,PORT BROUGHTON,SA,5522,PUBLIC,,
0012480A,PORT KEMBLA HOSPITAL,WARRAWONG,NSW,2502,PUBLIC,,
0060460H,PORT LINCOLN HEALTH SERVICES,PORT LINCOLN,SA,5606,PUBLIC,,
0017070A,PORT MACQUARIE BASE HOSPITAL,PORT MACQUARIE,NSW,2444,PUBLIC,,
0027400F,PORT MACQUARIE OPHTHALMIC SURGERY,PORT MACQUARIE,NSW,2444,PRIVATE,,
0016940A,PORT MACQUARIE PRIVATE HOSPITAL,PORT MACQUARIE,NSW,2444,PRIVATE,,
0060470F,PORT PIRIE HOSPITAL,PORT PIRIE,SA,5540,PUBLIC,,
0030910A,PORTLAND DISTRICT HEALTH,PORTLAND,VIC,3305,PUBLIC,,
0011960T,PORTLAND TABULAM HEALTH CENTRE,PORTLAND,NSW,2847,PUBLIC,,
0044140A,PRECISION ASCEND REHABILITATION CENTRE,CAULFIELD SOUTH,VIC,3161,PRIVATE,,
0016840F,PRESIDENT PRIVATE HOSPITAL,KIRRAWEE,NSW,2232,PRIVATE,,
0011970L,PRINCE ALBERT TENTERFIELD,TENTERFIELD,NSW,2372,PUBLIC,,
0010260H,PRINCE OF WALES HOSPITAL,RANDWICK,NSW,2031,PUBLIC,,
0017170X,PRINCE OF WALES PRIVATE HOSPITAL,RANDWICK,NSW,2031,PRIVATE,,
0051080F,PRINCESS ALEXANDRA HOSPITAL,WOOLLOONGABBA,QLD,4102,PUBLIC,,
0051090B,PROSERPINE HOSPITAL,PROSERPINE,QLD,4800,PUBLIC,,
0070700L,QUAIRADING HOSPITAL,QUAIRADING,WA,6383,PUBLIC,,
0011980K,QUEANBEYAN DISTRICT HOSPITAL,QUEANBEYAN,NSW,2620,PUBLIC,,
0090020F,QUEEN ELIZABETH II FAMILY CENTRE,CURTIN,ACT,2605,PUBLIC,,
0051630L,QUEEN ELIZABETH II JUBILEE HOSPITAL,COOPERS PLAINS,QLD,4108,PUBLIC,,
0056130T,QUEENSLAND CHILDREN'S HOSPITAL ,SOUTH BRISBANE,QLD,4101,PUBLIC,,
0057570F,QUEENSLAND DAY HOSPITAL,SALISBURY,QLD,4107,PRIVATE,,
0051100W,QUILPIE HOSPITAL,QUILPIE,QLD,4480,PUBLIC,,
0011990J,QUIRINDI COMMUNITY HOSPITAL,QUIRINDI,NSW,2343,PUBLIC,,
0060480B,QUORN HEALTH SERVICES,QUORN,SA,5433,PUBLIC,,
0065030K,RAMSAY CLINIC ADELAIDE,GILBERTON,SA,5081,PRIVATE,,
0036710F,RAMSAY CLINIC ALBERT ROAD,MELBOURNE,VIC,3004,PRIVATE,,
0056100Y,RAMSAY CLINIC CAIRNS,NORTH CAIRNS,QLD,4870,PRIVATE,,
0055810Y,RAMSAY CLINIC CALOUNDRA,CALOUNDRA,QLD,4551,PRIVATE,,
0016570K,RAMSAY CLINIC CREMORNE,CREMORNE,NSW,2090,PRIVATE,,
0017480F,RAMSAY CLINIC MACARTHUR,CAMPBELLTOWN,NSW,2560,PRIVATE,,
0055620F,RAMSAY CLINIC NEW FARM,NEW FARM,QLD,4005,PRIVATE,,
0016770B,RAMSAY CLINIC NORTHSIDE,ST LEONARDS,NSW,2065,PRIVATE,,
0016410F,RAMSAY CLINIC THIRROUL,THIRROUL,NSW,2515,PRIVATE,,
0016050L,RAMSAY CLINIC WENTWORTHVILLE ,WENTWORTHVILLE,NSW,2145,PRIVATE,,
0065680Y,RAMSAY DAY CLINIC KAHLYN,MAGILL,SA,5072,PRIVATE,,
0887521H,RAMSAY SURGICAL CENTRE CAIRNS,CAIRNS,QLD,4870,PRIVATE,,
0017670Y,RAMSAY SURGICAL CENTRE COFFS HARBOUR,COFFS HARBOUR,NSW,2450,PRIVATE,,
0036840W,RAMSAY SURGICAL CENTRE GLENFERRIE ,HAWTHORN,VIC,3122,PRIVATE,,
0027450W,RAMSAY SURGICAL CENTRE MIRANDA,MIRANDA,NSW,2228,PRIVATE,,
0017640F,RAMSAY SURGICAL CENTRE ORANGE,ORANGE,NSW,2800,PRIVATE,,
0070980K,RAVENSTHORPE HOSPITAL,RAVENSTHORPE,WA,6346,PUBLIC,,
0051110T,REDCLIFFE HOSPITAL,REDCLIFFE,QLD,4020,PUBLIC,,
0051720K,REDLAND HOSPITAL,CLEVELAND,QLD,4163,PUBLIC,,
0999251T,REGIONAL IMAGING CARDIOVASCULAR CENTRE,WAGGA WAGGA,NSW,2650,PRIVATE,,
0060490A,RENMARK PARINGA DISTRICT HOSPITAL,RENMARK,SA,5341,PUBLIC,,
0067080H,REPROMED DAY SURGERY,DULWICH,SA,5065,PRIVATE,,
0036460H,RESERVOIR PRIVATE HOSPITAL DAY PROCEDURE CENTRE,RESERVOIR,VIC,3073,PRIVATE,,
0051120L,RICHMOND HOSPITAL,RICHMOND,QLD,4822,PUBLIC,,
0036430L,RINGWOOD PRIVATE HOSPITAL,EAST RINGWOOD,VIC,3135,PRIVATE,,
0056040W,RIVERCITY PRIVATE HOSPITAL,AUCHENFLOWER,QLD,4066,PRIVATE,,
0027060J,RIVERINA CANCER CARE CENTRE,WAGGA WAGGA,NSW,2650,PRIVATE,,
0027410B,RIVERINA DAY SURGERY,WAGGA WAGGA,NSW,2650,PRIVATE,,
0060080X,RIVERLAND GENERAL HOSPITAL,BERRI,SA,5343,PUBLIC,,
0060500T,RIVERTON HOSPITAL,RIVERTON,SA,5412,PUBLIC,,
0051940Y,ROBINA HOSPITAL,ROBINA,QLD,4226,PUBLIC,,
0056170H,ROBINA PRIVATE HOSPITAL,ROBINA,QLD,4226,PRIVATE,,
0030660B,ROBINVALE DISTRICT HEALTH SERVICES - MANANGATANG CAMPUS,MANANGATANG,VIC,3546,PUBLIC,,
0031000J,ROBINVALE DISTRICT HEALTH SERVICES - ROBINVALE CAMPUS,ROBINVALE,VIC,3549,PUBLIC,,
0031010H,ROCHESTER AND ELMORE DISTRICT HEALTH SERVICE,ROCHESTER,VIC,3561,PUBLIC,,
0051130K,ROCKHAMPTON BASE HOSPITAL,ROCKHAMPTON,QLD,4700,PUBLIC,,
0077250K,ROCKINGHAM DIALYSIS CLINIC,ROCKINGHAM ,WA,6168,PRIVATE,,
0071490Y,ROCKINGHAM GENERAL HOSPITAL,COOLOONGUP,WA,6168,PUBLIC,,
0999941K,RODERICK STREET DAY SURGERY,IPSWICH,QLD,4305,PRIVATE,,
0070710K,ROEBOURNE HOSPITAL,ROEBOURNE,WA,6718,PUBLIC,,
0051140J,ROMA HOSPITAL,ROMA,QLD,4455,PUBLIC,,
0658011A,ROSEBERY DAY SURGERY,ROSEBERY,NSW,2018,PRIVATE,,
0044170W,ROSEBUD DAY HOSPITAL,ROSEBUD,VIC,3939,PRIVATE,,
0044160X,ROSEBUD ENDOSCOPY,ROSEBUD  ,VIC,3939,PRIVATE,,
0030360T,ROSEBUD HOSPITAL,ROSEBUD,VIC,3939,PUBLIC,,
0656281W,ROSEMONT ENDOSCOPY CENTRE,WOLLONGONG,NSW,2500,PRIVATE,,
0060860L,ROXBY DOWNS HOSPITAL,ROXBY DOWNS,SA,5725,PUBLIC,,
0050180J,ROYAL BRISBANE & WOMENS HOSPITAL,HERSTON,QLD,4029,PUBLIC,,
0095070Y,ROYAL DARWIN HOSPITAL,TIWI,NT,0810,PUBLIC,,
0080060L,ROYAL HOBART HOSPITAL,HOBART,TAS,7000,PUBLIC,,
0010070L,ROYAL HOSPITAL FOR WOMEN,RANDWICK,NSW,2031,PUBLIC,,
0031030B,ROYAL MELBOURNE HOSPITAL - CITY CAMPUS,PARKVILLE,VIC,3050,PUBLIC,,
0031860J,ROYAL MELBOURNE HOSPITAL - ROYAL PARK CAMPUS,PARKVILLE,VIC,3052,PUBLIC,,
0010310L,ROYAL NORTH SHORE HOSPITAL,ST LEONARDS,NSW,2065,PUBLIC,,
0070000X,ROYAL PERTH HOSPITAL,PERTH,WA,6000,PUBLIC,,
0010320K,ROYAL PRINCE ALFRED HOSPITAL,CAMPERDOWN,NSW,2050,PUBLIC,,
0015310W,ROYAL REHAB PRIVATE PETERSHAM,PETERSHAM,NSW,2049,PRIVATE,,
0017490B,ROYAL REHAB PRIVATE RYDE,RYDE,NSW,2112,PRIVATE,,
0012600J,ROYAL REHABILITATION HOSPITAL - COORABEL/MOORONG,RYDE,NSW,2112,PUBLIC,,
0031600H,ROYAL TALBOT REHABILITATION CENTRE,KEW,VIC,3101,PUBLIC,,
0035360X,RURAL NORTHWEST HEALTH - HOPETOUN CAMPUS,HOPETOUN,VIC,3396,PUBLIC,,
0031270J,RURAL NORTHWEST HEALTH - WARRACKNABEAL CAMPUS,WARRACKNABEAL,VIC,3393,PUBLIC,,
0010390X,RYDE HOSPITAL,EASTWOOD,NSW,2122,PUBLIC,,
0012010J,RYLSTONE DISTRICT HOSPITAL,RYLSTONE,NSW,2849,PUBLIC,,
0010400K,SACRED HEART HEALTH SERVICE,DARLINGHURST,NSW,2010,PUBLIC,,
0057230B,SAMFORD ROAD DAY HOSPITAL,GAYTHORNE,QLD,4051,PRIVATE,,
0031470A,SANDRINGHAM HOSPITAL,SANDRINGHAM,VIC,3191,PUBLIC,,
0051410B,SARINA HOSPITAL,SARINA,QLD,4737,PUBLIC,,
0012050A,"SCOTT MEMORIAL HOSPITAL, SCONE",SCONE,NSW,2337,PUBLIC,,
0067260B,SEAFORD DAY SURGERY ,SEAFORD HEIGHTS,SA,5169,PRIVATE,,
0031070W,SEYMOUR HEALTH,SEYMOUR,VIC,3660,PUBLIC,,
0010060T,SHELLHARBOUR HOSPITAL,MOUNT WARRIGAL,NSW,2528,PUBLIC,,
0016800L,SHELLHARBOUR PRIVATE HOSPITAL,BARRACK HEIGHTS,NSW,2528,PRIVATE,,
0036550F,SHEPPARTON PRIVATE HOSPITAL,SHEPPARTON,VIC,3630,PRIVATE,,
0012060Y,SHOALHAVEN DISTRICT MEMORIAL HOSPITAL,NOWRA,NSW,2541,PUBLIC,,
0057010T,SHORT STREET DAY SURGERY,SOUTHPORT,QLD,4215,PRIVATE,,
0027240F,SIGHT FOUNDATION THEATRE,SYDNEY,NSW,2000,PRIVATE,,
0012070X,SINGLETON DISTRICT HOSPITAL,SINGLETON,NSW,2330,PUBLIC,,
0070990J,SIR CHARLES GAIRDNER HOSPITAL,NEDLANDS,WA,6009,PUBLIC,,
0036730A,SIR JOHN MONASH PRIVATE HOSPITAL,CLAYTON,VIC,3168,PRIVATE,,
0036870K,SKIN CANCER DAY SURGERY,ASHWOOD,VIC,3147,PRIVATE,,
0044050B,SKIN HEALTH INSTITUTE,CARLTON,VIC,3053,PRIVATE,,
0077200Y,SLEEPMED HEALTHCARE,LEEMING,WA,6149,PRIVATE,,
0027670F,SMITHFIELD ENDOSCOPY CENTRE,SMITHFIELD,NSW,2164,PRIVATE,,
0080200W,SMITHTON DISTRICT HOSPITAL,SMITHTON,TAS,7330,PUBLIC,,
0060510L,SNOWTOWN HOSPITAL,SNOWTOWN,SA,5520,PUBLIC,,
0097010W,SOLE VITA SURGERY,DEAKIN,ACT,2600,PRIVATE,,
0017660A,SOMERSET PRIVATE HOSPITAL,KINGSWOOD,NSW,2747,PRIVATE,,
0057410Y,SOUTH BRISBANE DAY HOSPITAL,WOOLLOONGABBA,QLD,4102,PRIVATE,,
0057210H,SOUTH COAST DIGESTIVE DISEASES CENTRE,BUNDALL,QLD,4217,PRIVATE,,
0060550F,SOUTH COAST DISTRICT HOSPITAL,VICTOR HARBOR,SA,5211,PUBLIC,,
0017460J,SOUTH COAST PRIVATE,WOLLONGONG,NSW,2500,PRIVATE,,
0010670K,SOUTH EAST REGIONAL HOSPITAL,BEGA,NSW,2550,PUBLIC,,
0036280K,SOUTH EASTERN PRIVATE HOSPITAL,NOBLE PARK,VIC,3174,PRIVATE,,
0031090L,SOUTH GIPPSLAND HOSPITAL,FOSTER,VIC,3960,PUBLIC,,
0015930K,SOUTH PACIFIC PRIVATE HOSPITAL,CURL CURL,NSW,2096,PRIVATE,,
0075260B,SOUTH PERTH HOSPITAL,SOUTH PERTH,WA,6151,PRIVATE,,
0030180X,SOUTH WEST HEALTHCARE - CAMPERDOWN,CAMPERDOWN,VIC,3260,PUBLIC,,
0031280H,SOUTH WEST HEALTHCARE - WARRNAMBOOL CAMPUS,WARRNAMBOOL,VIC,3280,PUBLIC,,
0889011L,SOUTH WESTERN ENDOSCOPY CENTRE,LIVERPOOL,NSW,2170,PRIVATE,,
0044250W,SOUTH YARRA DAY SURGERY,SOUTH YARRA,VIC,3141,PRIVATE,,
0075510A,SOUTHBANK DAY SURGERY,SOUTH PERTH,WA,6151,PRIVATE,,
0070720J,SOUTHERN CROSS HOSPITAL,SOUTHERN CROSS,WA,6426,PUBLIC,,
0067200T,SOUTHERN ENDOSCOPY CENTRE,SOMERTON PARK,SA,5144,PRIVATE,,
0925661J,"SOUTHERN EYE CENTRE, DAY SURGERY & LASER CLINIC",FRANKSTON,VIC,3199,PRIVATE,,
0017130F,SOUTHERN HIGHLANDS PRIVATE HOSPITAL,BOWRAL,NSW,2576,PRIVATE,,
0026940H,SOUTHERN SUBURBS DAY PROCEDURE CENTRE,KOGARAH,NSW,2217,PRIVATE,,
0060590X,SOUTHERN YORKE PENINSULA HEALTH SERVICES,YORKETOWN,SA,5576,PUBLIC,,
0057370L,SOUTHPORT DAY HOSPITAL,SOUTHPORT,QLD,4215,PRIVATE,,
0027420A,SOUTHSIDE CANCER CARE CENTRE,MIRANDA,NSW,2228,PRIVATE,,
0999411T,SOUTHSIDE ENDOSCOPY CENTRE,LOGANHOLME,QLD,4129,PRIVATE,,
0057540K,SOUTHSIDE PROCEDURE CENTRE,SUNNYBANK,QLD,4109,PRIVATE ,,
0075670H,SPEARWOOD HAEMODIALYSIS UNIT,SPEARWOOD,WA,6163,PRIVATE,,
0085270H,SPECIALIST CARE AUSTRALIA - CAMPBELL TOWN,CAMPBELL TOWN,TAS,7210,PRIVATE,,
0087050B,SPECIALIST CARE AUSTRALIA LAUNCESTON,LAUNCESTON,TAS,7250,PRIVATE,,
0085250K,SPECIALIST CARE AUSTRALIA ULVERSTONE,ULVERSTONE,TAS,7315,PRIVATE,,
0043770A,SPECIALIST SURGICENTRE DOCKLANDS,DOCKLANDS,VIC,3008,PRIVATE,,
0043840B,SPECIALIST SURGICENTRE GEELONG,GEELONG,VIC,3220,PRIVATE,,
0055990A,SPENDELOVE PRIVATE HOSPITAL,SOUTHPORT,QLD,4215,PRIVATE,,
0656641J,SPRING HILL SPECIALIST DAY HOSPITAL,SPRING HILL,QLD,4000,PRIVATE,,
0051190Y,SPRINGSURE HOSPITAL,SPRINGSURE,QLD,4722,PUBLIC,,
0894531L,SPRINGVALE ENDOSCOPY CENTRE AND DAY HOSPITAL,SPRINGVALE,VIC,3171,PRIVATE,,
0057620K,SPRINGWOOD DAY SURGERY ,SPRINGWOOD,QLD,4127,PRIVATE ,,
0012730Y,SPRINGWOOD HOSPITAL,SPRINGWOOD,NSW,2777,PUBLIC,,
0043520X,ST ALBANS ENDOSCOPY CENTRE,ST ALBANS,VIC,3021,PRIVATE,,
0065310B,ST ANDREW'S HOSPITAL INC,ADELAIDE,SA,5000,PRIVATE,,
0055420L,ST ANDREW'S IPSWICH PRIVATE HOSPITAL,IPSWICH,QLD,4305,PRIVATE,,
0055530H,ST ANDREW'S TOOWOOMBA HOSPITAL,TOOWOOMBA,QLD,4350,PRIVATE,,
0055130A,ST ANDREW'S WAR MEMORIAL HOSPITAL,BRISBANE,QLD,4000,PRIVATE,,
0010410J,ST GEORGE HOSPITAL,KOGARAH,NSW,2217,PUBLIC,,
0051160F,ST GEORGE HOSPITAL (QLD),ST GEORGE,QLD,4487,PUBLIC,,
0017090X,ST GEORGE PRIVATE HOSPITAL,KOGARAH,NSW,2217,PRIVATE,,
0031130Y,ST GEORGE'S HEALTH SERVICE,KEW,VIC,3101,PUBLIC,,
0080440A,ST HELENS DISTRICT HOSPITAL,ST HELENS,TAS,7216,PUBLIC,,
0035800K,ST JOHN OF GOD BALLARAT HOSPITAL,BALLARAT,VIC,3350,PRIVATE,,
0036320X,ST JOHN OF GOD BENDIGO HOSPITAL,BENDIGO,VIC,3550,PRIVATE,,
0044070Y,ST JOHN OF GOD BERWICK DAY ONCOLOGY CENTRE,BERWICK,VIC,3806,PRIVATE,,
0035080F,ST JOHN OF GOD BERWICK HOSPITAL,BERWICK,VIC,3806,PRIVATE,,
0075200T,ST JOHN OF GOD BUNBURY HOSPITAL,BUNBURY,WA,6230,PRIVATE,,
0016070J,ST JOHN OF GOD BURWOOD HOSPITAL,BURWOOD,NSW,2134,PRIVATE,,
0036810A,ST JOHN OF GOD FRANKSTON REHABILITATION HOSPITAL,FRANKSTON,VIC,3199,PRIVATE,,
0035340A,ST JOHN OF GOD GEELONG HOSPITAL,GEELONG,VIC,3220,PRIVATE,,
0075210L,ST JOHN OF GOD GERALDTON HOSPITAL,GERALDTON,WA,6530,PRIVATE,,
0075240H,"ST JOHN OF GOD HOSPITAL, SUBIACO",SUBIACO,WA,6008,PRIVATE,,
0036560B,ST JOHN OF GOD LANGMORE CENTRE ,BERWICK,VIC,3806,PRIVATE,,
0075700W,ST JOHN OF GOD MIDLAND HEALTH CAMPUS,MIDLAND,WA,6056,PRIVATE,,
0075160H,ST JOHN OF GOD MT LAWLEY HOSPITAL,MOUNT LAWLEY,WA,6050,PRIVATE,,
0075480L,ST JOHN OF GOD MURDOCH HOSPITAL,MURDOCH,WA,6150,PRIVATE,,
0016080H,ST JOHN OF GOD RICHMOND HOSPITAL,NORTH RICHMOND,NSW,2754,PRIVATE,,
0077190H,ST JOHN OF GOD SUBIACO EYE HOSPITAL ,WEMBLEY,WA,6014,PRIVATE,,
0035820H,ST JOHN OF GOD WARRNAMBOOL HOSPITAL,WARRNAMBOOL,VIC,3280,PRIVATE,,
0010430F,ST JOSEPH'S HOSPITAL,AUBURN,NSW,2144,PUBLIC,,
0043810J,ST KILDA DAY HOSPITAL,ELWOOD,VIC,3184,PRIVATE,,
0017010L,ST LUKE'S HOSPITAL,POTTS POINT,NSW,2011,PRIVATE,,
0060040F,ST MARGARETS REHABILITATION CENTRE,SEMAPHORE,SA,5019,PUBLIC,,
0080180F,ST MARYS COMMUNITY HEALTH CENTRE,ST MARYS,TAS,7215,PUBLIC,,
0057320A,ST STEPHEN'S HOSPITAL HERVEY BAY,URRAWEEN,QLD,4655,PRIVATE,,
0010460Y,ST VINCENT'S HOSPITAL (DARLINGHURST),DARLINGHURST,NSW,2010,PUBLIC,,
0012040B,ST VINCENT'S HOSPITAL (LISMORE),LISMORE,NSW,2480,PUBLIC,,
0031140X,ST VINCENT'S HOSPITAL (MELBOURNE) LTD,FITZROY,VIC,3065,PUBLIC,,
0017550H,ST VINCENT'S PRIVATE COMMUNITY HOSPITAL GRIFFITH,GRIFFITH,NSW,2680,PRIVATE,,
0016150J,ST VINCENT'S PRIVATE HOSPITAL (DARLINGHURST),DARLINGHURST,NSW,2010,PRIVATE,,
0017030J,ST VINCENT'S PRIVATE HOSPITAL (LISMORE),LISMORE,NSW,2480,PRIVATE,,
0055570Y,ST VINCENT'S PRIVATE HOSPITAL BRISBANE,KANGAROO POINT,QLD,4169,PRIVATE,,
0035500A,ST VINCENT'S PRIVATE HOSPITAL EAST MELBOURNE,EAST MELBOURNE,VIC,3002,PRIVATE,,
0036340T,ST VINCENT'S PRIVATE HOSPITAL FITZROY,FITZROY,VIC,3065,PRIVATE,,
0036470F,ST VINCENT'S PRIVATE HOSPITAL KEW,KEW,VIC,3101,PRIVATE,,
0056000B,ST VINCENT'S PRIVATE HOSPITAL NORTHSIDE,CHERMSIDE,QLD,4032,PRIVATE,,
0055460F,ST VINCENT'S PRIVATE HOSPITAL TOOWOOMBA,TOOWOOMBA,QLD,4350,PRIVATE,,
0036980F,ST VINCENTS PRIVATE HOSPITAL WERRIBEE,WERRIBEE,VIC,3030,PRIVATE,,
0051200L,STANTHORPE HOSPITAL,STANTHORPE,QLD,4380,PUBLIC,,
0031110B,STAWELL REGIONAL HEALTH,STAWELL,VIC,3380,PUBLIC,,
0087010K,STEELE STREET CLINIC,DEVONPORT,TAS,7310,PRIVATE,,
0077230T,STIRLING DIALYSIS CLINIC,STIRLING,WA,6021,PRIVATE,,
0065340X,STIRLING HOSPITAL INC,STIRLING,SA,5152,PRIVATE,,
0043560K,STONNINGTON DAY SURGERY,MALVERN,VIC,3144,PRIVATE,,
0060520K,STRATHALBYN AND DISTRICT HEALTH SERVICES,STRATHALBYN,SA,5255,PUBLIC,,
0015070W,STRATHFIELD PRIVATE HOSPITAL,STRATHFIELD,NSW,2135,PRIVATE,,
0060530J,STREAKY BAY HOSPITAL,STREAKY BAY,SA,5680,PUBLIC,,
0075660J,SUBIACO PRIVATE HOSPITAL,SUBIACO,WA,6008,PRIVATE,,
0044020J,SUNBURY DAY HOSPITAL,SUNBURY,VIC,3429,PUBLIC,,
0075720L,SUNDEW DAY SURGERY,JOONDALUP,WA,6027,PRIVATE,,
0055720A,SUNNYBANK PRIVATE HOSPITAL,SUNNYBANK,QLD,4109,PRIVATE,,
0657801A,SUNSHINE COAST DAY SURGERY,MAROOCHYDORE,QLD,4558,PRIVATE,,
0926591Y,SUNSHINE COAST HAEMATOLOGY AND ONCOLOGY CLINIC,BUDERIM,QLD,4556,PRIVATE,,
0051960W,SUNSHINE COAST UNIVERSITY HOSPITAL,BIRTINYA,QLD,4575,PUBLIC,,
0056110X,SUNSHINE COAST UNIVERSITY PRIVATE HOSPITAL,BIRTINYA,QLD,4575,PRIVATE,,
0044130B,SUNSHINE DIALYSIS CLINIC,ST ALBANS,VIC,3021,PRIVATE,,
0031910T,SUNSHINE HOSPITAL,ST ALBANS,VIC,3021,PUBLIC,,
0043530W,SUNSHINE PRIVATE DAY SURGERY,ST ALBANS,VIC,3021,PRIVATE,,
0037090J,SUNSHINE PRIVATE HOSPITAL,ST ALBANS,VIC,3021,PRIVATE,,
0051210K,SURAT HOSPITAL,SURAT,QLD,4417,PUBLIC,,
0051980L,SURGICAL TREATMENT AND REHABILITATION SERVICE (STARS),HERSTON,QLD,4029,PUBLIC,,
0027040L,SURRY HILLS DAY HOSPITAL,SURRY HILLS,NSW,2010,PRIVATE,,
0017280L,SUTHERLAND HEART CLINIC,CARINGBAH,NSW,2229,PRIVATE,,
0027620T,SWAN CLINIC FOR PLASTIC SURGERY,GYMEA,NSW,2227,PRIVATE,,
0070950W,SWAN DISTRICTS HOSPITAL,MIDDLE SWAN,WA,6056,PUBLIC,,
0031160T,SWAN HILL DISTRICT HEALTH [SWAN HILL],SWAN HILL,VIC,3585,PUBLIC,,
0016260B,SYDNEY ADVENTIST HOSPITAL,WAHROONGA,NSW,2076,PRIVATE,,
0012870J,SYDNEY CHILDREN'S HOSPITAL,RANDWICK,NSW,2031,PUBLIC,,
0657501L,SYDNEY CLINIC FOR GASTROINTESTINAL DISEASES,BONDI JUNCTION,NSW,2022,PRIVATE,,
0027470L,SYDNEY DAY HOSPITAL,SYDNEY,NSW,2000,PRIVATE,,
0027030T,SYDNEY DAY SURGERY,DARLINGHURST,NSW,2010,PRIVATE,,
0666411H,SYDNEY DAY SURGERY - PRINCE ALFRED,NEWTOWN,NSW,2042,PRIVATE,,
0010500H,SYDNEY HOSPITAL AND SYDNEY EYE HOSPITAL,SYDNEY,NSW,2000,PUBLIC,,
0027200L,SYDNEY OCULOPLASTIC SURGERY,SYDNEY,NSW,2000,PRIVATE,,
0027640K,SYDNEY PAIN DAY SURGERY,EPPING,NSW,2121,PRIVATE,,
0027140J,SYDNEY RETINA CLINIC & DAY SURGERY,SYDNEY,NSW,2000,PRIVATE,,
0016910H,SYDNEY SOUTHWEST PRIVATE HOSPITAL,LIVERPOOL,NSW,2170,PRIVATE,,
0656931Y,SYDNEY SPECIALIST DAY HOSPITAL,CHATSWOOD,NSW,2067,PRIVATE,,
0027460T,SYDNEY SURGICAL CENTRE,RANDWICK,NSW,2031,PRIVATE,,
0060600K,TAILEM BEND HOSPITAL,TAILEM BEND,SA,5260,PUBLIC,,
0031170L,TALLANGATTA HEALTH SERVICE,TALLANGATTA,VIC,3700,PUBLIC,,
0016700W,TAMARA PRIVATE HOSPITAL,TAMWORTH,NSW,2340,PRIVATE,,
0012090T,TAMWORTH RURAL REFERRAL HOSPITAL,TAMWORTH,NSW,2340,PUBLIC,,
0060830X,TANUNDA HOSPITAL,TANUNDA,SA,5352,PUBLIC,,
0051230H,TARA HOSPITAL,TARA,QLD,4421,PUBLIC,,
0051240F,TAROOM HOSPITAL,TAROOM,QLD,4420,PUBLIC,,
0057480H,TASMAN HEALTH CARE DAY INFUSION UNIT,SOUTHPORT,QLD,4215,PRIVATE,,
0085200Y,TASMAN MULTI-PURPOSE CENTRE,NUBEENA,TAS,7184,PUBLIC,,
0012100H,TEMORA HOSPITAL,TEMORA,NSW,2666,PUBLIC,,
0044280K,TEMPLESTOWE DAY SURGERY,TEMPLESTOWE,VIC,3106,PRIVATE,,
0095040F,TENNANT CREEK HOSPITAL,TENNANT CREEK,NT,0860,PUBLIC,,
0030820B,TERANG & MORTLAKE HEALTH SERVICE,TERANG,VIC,3264,PUBLIC,,
0051250B,TEXAS HOSPITAL MULTIPURPOSE HEALTH SERVICE,TEXAS,QLD,4385,PUBLIC,,
0030020L,THE ALFRED,PRAHRAN,VIC,3004,PUBLIC,,
0036440K,THE AVENUE PRIVATE HOSPITAL,WINDSOR,VIC,3181,PRIVATE,,
0035400F,THE BAYS HOSPITAL,MORNINGTON,VIC,3931,PRIVATE,,
0017540J,THE BORDER CANCER HOSPITAL,ALBURY,NSW,2640,PRIVATE,,
0090030B,THE CANBERRA HOSPITAL,GARRAN,ACT,2605,PUBLIC,,
0026900T,THE CATARACT CLINIC (AUST),NORTH SYDNEY,NSW,2060,PRIVATE,,
0010300T,THE CHILDREN'S HOSPITAL AT WESTMEAD,WESTMEAD,NSW,2145,PUBLIC,,
0656701L,THE DIGESTIVE HEALTH CENTRE,DANDENONG,VIC,3175,PRIVATE,,
0834321J,THE EYE HOSPITAL,LAUNCESTON,TAS,7250,PRIVATE,,
0012860K,THE FORENSIC HOSPITAL,MALABAR,NSW,2036,PUBLIC,,
0036590X,THE GEELONG CLINIC,ST ALBANS PARK,VIC,3219,PRIVATE,,
0017700J,THE GEORGE CENTRE,GLEDSWOOD HILLS,NSW,2557,PRIVATE,,
0043580H,THE GLEN ENDOSCOPY CENTRE,GLEN WAVERLEY,VIC,3150,PRIVATE,,
0037020A,THE HADER CLINIC,ST ALBANS PARK,VIC,3219,PRIVATE,,
0017410X,THE HILLS CLINIC,KELLYVILLE,NSW,2155,PRIVATE,,
0017320Y,THE HILLS PRIVATE HOSPITAL,BAULKHAM HILLS,NSW,2153,PRIVATE,,
0085130X,THE HOBART CLINIC,ROKEBY,TAS,7019,PRIVATE,,
0030560H,THE KILMORE AND DISTRICT HOSPITAL,KILMORE,VIC,3764,PUBLIC,,
0036520K,THE MELBOURNE CLINIC,RICHMOND,VIC,3121,PRIVATE,,
0036570A,THE MELBOURNE EASTERN PRIVATE HOSPITAL,BORONIA,VIC,3155,PRIVATE,,
0032110W,THE MORNINGTON CENTRE,MORNINGTON,VIC,3931,PUBLIC,,
0030940W,THE NORTHERN HOSPITAL,EPPING,VIC,3076,PUBLIC,,
0051850A,THE PARK - CENTRE FOR MENTAL HEALTH,WACOL,QLD,4076,PUBLIC,,
0075110W,THE PARK PRIVATE HOSPITAL,MOUNT LAWLEY,WA,6050,PRIVATE,,
0051400F,THE PRINCE CHARLES HOSPITAL,CHERMSIDE,QLD,4032,PUBLIC,,
0030960L,THE QUEEN ELIZABETH CENTRE,NOBLE PARK,VIC,3174,PUBLIC,,
0060010K,THE QUEEN ELIZABETH HOSPITAL,WOODVILLE,SA,5011,PUBLIC,,
0060030H,THE ROYAL ADELAIDE HOSPITAL,ADELAIDE,SA,5000,PUBLIC,,
0031020F,THE ROYAL CHILDRENS HOSPITAL,PARKVILLE,VIC,3052,PUBLIC,,
0031240T,THE ROYAL VICTORIAN EYE AND EAR HOSPITAL,EAST MELBOURNE,VIC,3002,PUBLIC,,
0031040A,THE ROYAL WOMEN'S HOSPITAL,PARKVILLE,VIC,3052,PUBLIC,,
0017150A,THE SAN DAY SURGERY,HORNSBY,NSW,2077,PRIVATE,,
0834361A,THE SKIN HOSPITAL,WESTMEAD,NSW,2145,PRIVATE,,
0027380T,THE SKIN HOSPITAL (DARLINGHURST),DARLINGHURST,NSW,2010,PRIVATE,,
0056180F,THE SOUTHPORT PRIVATE HOSPITAL,SOUTHPORT,QLD,4215,PRIVATE,,
0010480W,THE SUTHERLAND HOSPITAL,CARINGBAH,NSW,2229,PUBLIC,,
0016630T,THE SYDNEY CLINIC,BRONTE,NSW,2024,PRIVATE,,
0015770K,THE SYDNEY PRIVATE HOSPITAL,ASHFIELD,NSW,2131,PRIVATE,,
0067130L,THE TENNYSON CENTRE DAY HOSPITAL,KURRALTA PARK,SA,5037,PRIVATE,,
0056210T,THE TOOWOOMBA CLINIC,SOUTH TOOWOOMBA,QLD,4350,PRIVATE,,
0036170W,THE VICTORIA CLINIC,PRAHRAN,VIC,3181,PRIVATE,,
0036640B,THE VICTORIAN REHABILITATION CENTRE,GLEN WAVERLEY,VIC,3150,PRIVATE,,
0055690L,THE WESLEY HOSPITAL,AUCHENFLOWER,QLD,4066,PRIVATE,,
0051270Y,THEODORE HOSPITAL,THEODORE,QLD,4719,PUBLIC,,
0032010Y,THOMAS EMBLING HOSPITAL,FAIRFIELD,VIC,3078,PUBLIC,,
0051280X,THURSDAY ISLAND HOSPITAL,THURSDAY ISLAND,QLD,4875,PUBLIC,,
0012120B,TIBOOBURRA HEALTH SERVICE,TIBOOBURRA,NSW,2880,PUBLIC,,
0031200A,TIMBOON & DISTRICT HEALTHCARE SERVICE,TIMBOON,VIC,3268,PUBLIC,,
0012130A,TINGHA MULTIPURPOSE SERVICE,TINGHA,NSW,2369,PUBLIC,,
0012140Y,TOCUMWAL HOSPITAL,TOCUMWAL,NSW,2714,PUBLIC,,
0071140Y,TOM PRICE HOSPITAL,TOM PRICE,WA,6751,PUBLIC,,
0010000F,TOMAREE COMMUNITY HOSPITAL,NELSON BAY,NSW,2315,PUBLIC,,
0080150K,TOOSEY AGED AND COMMUNITY CARE,LONGFORD,TAS,7301,PUBLIC,,
0055670W,TOOWONG PRIVATE HOSPITAL,TOOWONG,QLD,4066,PRIVATE,,
0056030X,TOOWOOMBA HOSPICE,TOOWOOMBA,QLD,4350,PRIVATE,,
0051290W,TOOWOOMBA HOSPITAL,TOOWOOMBA,QLD,4350,PUBLIC,,
0057560H,TOOWOOMBA PRIVATE DAY HOSPITAL,TOOWOOMBA,QLD,4350,PRIVATE,,
0656571H,TOOWOOMBA SURGICENTRE,TOOWOOMBA,QLD,4350,PRIVATE,,
0016480L,TORONTO PRIVATE HOSPITAL,TORONTO,NSW,2283,PRIVATE,,
0012150X,TOTTENHAM HOSPITAL,TOTTENHAM,NSW,2873,PUBLIC,,
0057240A,TOWNSVILLE DAY SURGERY,TOWNSVILLE,QLD,4810,PRIVATE,,
0056140L,TOWNSVILLE PRIVATE CLINIC,TOWNSVILLE CITY,QLD,4810,PRIVATE,,
0051840B,TOWNSVILLE UNIVERSITY HOSPITAL,DOUGLAS,QLD,4814,PUBLIC,,
0012160W,TRANGIE MULTI PURPOSE HEALTH SERVICE,TRANGIE,NSW,2823,PUBLIC,,
0010350F,TRESILLIAN FAMILY CARE CENTRE - BELMORE,BELMORE,NSW,2192,PUBLIC,,
0010370A,TRESILLIAN FAMILY CARE CENTRE - WILLOUGHBY,WILLOUGHBY,NSW,2068,PUBLIC,,
0012810Y,TRESILLIAN FAMILY CARE CENTRE - WOLLSTONECRAFT,WOLLSTONECRAFT,NSW,2065,PUBLIC,,
0012580X,TRUNDLE MULTI PURPOSE SERVICE,TRUNDLE,NSW,2875,PUBLIC,,
0017600L,TUGGERAH LAKES PRIVATE HOSPITAL,KANWAL,NSW,2259,PRIVATE,,
0012170T,TULLAMORE MULTI PURPOSE HEALTH SERVICE,TULLAMORE,NSW,2874,PUBLIC,,
0051310H,TULLY HOSPITAL,TULLY,QLD,4854,PUBLIC,,
0012180L,TUMBARUMBA MULTI PURPOSE SERVICE,TUMBARUMBA,NSW,2653,PUBLIC,,
0060540H,TUMBY BAY HOSPITAL,TUMBY BAY,SA,5605,PUBLIC,,
0012190K,TUMUT DISTRICT HOSPITAL,TUMUT,NSW,2720,PUBLIC,,
0031220X,TWEDDLE CHILD AND FAMILY HEALTH SERVICE,FOOTSCRAY,VIC,3011,PUBLIC,,
0999441J,TWEED DAY SURGERY,TWEED HEADS,NSW,2485,PRIVATE,,
0012690L,TWEED VALLEY HOSPITAL,CUDGEN,NSW,2487,PUBLIC,,
0027260A,ULLADULLA ENDOSCOPY & MEDICAL CENTRE,ULLADULLA,NSW,2539,PRIVATE,,
0090050Y,UNIVERSITY OF CANBERRA HOSPITAL,BRUCE,ACT,2617,PUBLIC,,
0030290L,UPPER MURRAY HEALTH AND COMMUNITY SERVICES,CORRYONG,VIC,3707,PUBLIC,,
0011620L,URANA HEALTH SERVICE,URANA,NSW,2645,PUBLIC,,
0012230X,URBENVILLE HEALTH SERVICE,URBENVILLE,NSW,2475,PUBLIC,,
0036970H,VERMONT PRIVATE HOSPITAL,VERMONT SOUTH,VIC,3133,PRIVATE,,
0065860W,VICTOR HARBOR PRIVATE HOSPITAL,VICTOR HARBOR,SA,5211,PRIVATE,,
0043860Y,VICTORIA PARADE SURGERY CENTRE,EAST MELBOURNE,VIC,3002,PRIVATE,,
0017720F,VICTORIA STREET PRIVATE HOSPITAL ,WOLLONGONG ,NSW,2500,PRIVATE,,
0044200F,VICTORIAN CENTRE FOR MENTAL HEALTH,OFFICER,VIC,3809,PRIVATE,,
0043920B,VICTORIAN GUT CENTRE BUNDOORA,BUNDOORA,VIC,3083,PRIVATE,,
0032180B,VICTORIAN HEART HOSPITAL,CLAYTON,VIC,3168,PUBLIC,,
0057090Y,VISION CENTRE DAY SURGERY,SOUTHPORT,QLD,4215,PRIVATE,,
0067160H,VISTA DAY SURGERY,WAYVILLE,SA,5034,PRIVATE,,
0044260T,VSC DAY SURGERY,TEMPLESTOWE LOWER,VIC,3107,PRIVATE,,
0012250T,WAGGA WAGGA RURAL REFERRAL HOSPITAL,WAGGA WAGGA,NSW,2650,PUBLIC,,
0070740F,WAGIN HOSPITAL,WAGIN,WA,6315,PUBLIC,,
0060560B,WAIKERIE HEALTH SERVICES,WAIKERIE,SA,5330,PUBLIC,,
0075500B,WAIKIKI PRIVATE HOSPITAL,WAIKIKI,WA,6169,PRIVATE,,
0012270K,WALCHA MULTIPURPOSE SERVICE,WALCHA,NSW,2354,PUBLIC,,
0077150T,WALCOTT STREET SURGICAL CENTRE,MOUNT LAWLEY,WA,6050,PRIVATE,,
0012280J,WALGETT HEALTH SERVICE,WALGETT,NSW,2832,PUBLIC,,
0060570A,WALLAROO HOSPITAL,WALLAROO,SA,5556,PUBLIC,,
0056240J,WANDI NERIDA,MOOLOOLAH VALLEY,QLD,4553,PRIVATE ,,
0036690T,WANGARATTA PRIVATE HOSPITAL,WANGARATTA,VIC,3677,PRIVATE,,
0032000A,WANTIRNA HEALTH,WANTIRNA,VIC,3152,PUBLIC,,
0012590W,WAR MEMORIAL HOSPITAL,WAVERLEY,NSW,2024,PUBLIC,,
0017390H,WARATAH PRIVATE HOSPITAL,HURSTVILLE,NSW,2220,PRIVATE,,
0012300Y,WARIALDA MULTIPURPOSE SERVICE,WARIALDA,NSW,2402,PUBLIC,,
0016880X,WARNERS BAY PRIVATE HOSPITAL,WARNERS BAY,NSW,2282,PRIVATE,,
0070470K,WARREN HOSPITAL,MANJIMUP,WA,6258,PUBLIC,,
0012310X,WARREN MULTI PURPOSE HEALTH SERVICE,WARREN,NSW,2824,PUBLIC,,
0656991J,WARRINGAH DAY SURGERY,BROOKVALE,NSW,2100,PRIVATE,,
0036490A,WARRINGAL PRIVATE HOSPITAL,HEIDELBERG,VIC,3084,PRIVATE,,
0051340A,WARWICK HOSPITAL,WARWICK,QLD,4370,PUBLIC,,
0012320W,WAUCHOPE DISTRICT MEMORIAL HOSPITAL,WAUCHOPE,NSW,2446,PUBLIC,,
0657311X,WAVERLEY ENDOSCOPY,MOUNT WAVERLEY,VIC,3149,PRIVATE,,
0036360K,WAVERLEY PRIVATE HOSPITAL,MOUNT WAVERLEY,VIC,3149,PRIVATE,,
0012330T,WEE WAA COMMUNITY HOSPITAL,WEE WAA,NSW,2388,PUBLIC,,
0051520X,WEIPA HOSPITAL,WEIPA,QLD,4874,PUBLIC,,
0012350K,WELLINGTON HEALTH SERVICE,WELLINGTON,NSW,2820,PUBLIC,,
0012360J,WENTWORTH DISTRICT HOSPITAL,WENTWORTH,NSW,2648,PUBLIC,,
0031870H,WERRIBEE MERCY HOSPITAL,WERRIBEE,VIC,3030,PUBLIC,,
0032120T,WERRIBEE MERCY MENTAL HEALTH PROGRAM,WERRIBEE,VIC,3030,PUBLIC,,
0012370H,WERRIS CREEK COMMUNITY HOSPITAL,WERRIS CREEK,NSW,2341,PUBLIC,,
0016210L,WESLEY HOSPITAL ASHFIELD,ASHFIELD,NSW,2131,PRIVATE,,
0016230J,WESLEY HOSPITAL KOGARAH,KOGARAH,NSW,2217,PRIVATE,,
0928171B,WESLEY HYPERBARIC,AUCHENFLOWER,QLD,4066,PRIVATE,,
0080170H,WEST COAST DISTRICT HOSPITAL,QUEENSTOWN,TAS,7467,PUBLIC,,
0075640L,WEST COAST ENDOSCOPY CENTRE,JOONDALUP,WA,6027,PRIVATE,,
0077300W,WEST COAST SURGICAL INSTITUTE ,BENTLEY,WA,6102,PRIVATE,,
0031310W,WEST GIPPSLAND HEALTHCARE GROUP,WARRAGUL,VIC,3820,PUBLIC,,
0075710T,WEST LEEDERVILLE PRIVATE HOSPITAL,WEST LEEDERVILLE,WA,6007,PRIVATE,,
0031370F,WEST WIMMERA HEALTH SERVICE - JEPARIT,JEPARIT,VIC,3423,PUBLIC,,
0031900W,WEST WIMMERA HEALTH SERVICE - KANIVA,KANIVA,VIC,3419,PUBLIC,,
0031900W,WEST WIMMERA HEALTH SERVICE - NHILL,NHILL,VIC,3418,PUBLIC,,
0031900W,WEST WIMMERA HEALTH SERVICE - RAINBOW,RAINBOW,VIC,3424,PUBLIC,,
0030280T,WESTERN DISTRICT HEALTH SERVICE - COLERAINE,COLERAINE,VIC,3315,PUBLIC,,
0030490F,WESTERN DISTRICT HEALTH SERVICE - HAMILTON,HAMILTON,VIC,3300,PUBLIC,,
0030890K,WESTERN DISTRICT HEALTH SERVICE - PENSHURST,PENSHURST,VIC,3289,PUBLIC,,
0656761A,WESTERN GASTROENTEROLOGY SERVICES,FOOTSCRAY,VIC,3011,PRIVATE,,
0077280F,WESTERN HAEMATOLOGY AND ONCOLOGY CLINICS,WEST PERTH,WA,6005,PRIVATE,,
0030070B,WESTERN HEALTH - BACCHUS MARSH,BACCHUS MARSH,VIC,3340,PUBLIC,,
0031970B,WESTERN HEALTH - MELTON HEALTH,MELTON WEST,VIC,3337,PUBLIC,,
0065780W,WESTERN HOSPITAL,HENLEY BEACH,SA,5022,PRIVATE,,
0031850K,WESTERN HOSPITAL,FOOTSCRAY,VIC,3011,PUBLIC,,
0036770T,WESTERN PRIVATE HOSPITAL,FOOTSCRAY,VIC,3011,PRIVATE,,
0027370W,WESTERN SYDNEY PRIVATE ONCOLOGY & INFUSION CENTRE,WESTMEAD,NSW,2145,PRIVATE,,
0012760T,WESTMEAD HOSPITAL,WESTMEAD,NSW,2145,PUBLIC,,
0017240Y,WESTMEAD PRIVATE HOSPITAL,WESTMEAD,NSW,2145,PRIVATE,,
0027210K,WESTMEAD REHABILITATION HOSPITAL,MERRYLANDS,NSW,2160,PRIVATE,,
0043910F,WESTPOINT ENDOSCOPY DAY HOSPITAL,WERRIBEE,VIC,3030,PRIVATE,,
0056200W,WESTSIDE PRIVATE HOSPITAL,TARINGA,QLD,4068,PRIVATE,,
0834421F,WHITEHORSE DAY SURGERY,BOX HILL,VIC,3128,PRIVATE,,
0060610J,WHYALLA HOSPITAL,WHYALLA,SA,5600,PUBLIC,,
0057610L,WIDE BAY PRIVATE DAY HOSPITAL,BUNDABERG WEST,QLD,4670,PRIVATE,,
0012380F,WILCANNIA HEALTH SERVICE,WILCANNIA,NSW,2836,PUBLIC,,
0031340K,WILLIAMSTOWN HOSPITAL,WILLIAMSTOWN,VIC,3016,PUBLIC,,
0012390B,WILSON MEMORIAL COMMUNITY HOSPITAL,MURRURUNDI,NSW,2338,PUBLIC,,
0030330Y,WIMMERA HEALTH CARE GROUP - DIMBOOLA,DIMBOOLA,VIC,3414,PUBLIC,,
0034650W,WIMMERA HEALTH CARE GROUP - HORSHAM,HORSHAM,VIC,3400,PUBLIC,,
0067270A,WINDSOR GARDENS DAY SURGERY,WINDSOR GARDENS,SA,5087,PRIVATE,,
0657421L,WINDSOR PRIVATE HOSPITAL,WINDSOR,VIC,3181,PRIVATE,,
0012610H,WINGHAM COMMUNITY HOSPITAL,WINGHAM,NSW,2429,PUBLIC,,
0051350Y,WINTON HOSPITAL,WINTON,QLD,4735,PUBLIC,,
0657841T,WOLLONGONG DAY SURGERY,WOLLONGONG,NSW,2500,PRIVATE,,
0012400W,WOLLONGONG HOSPITAL,WOLLONGONG,NSW,2500,PUBLIC,,
0017530K,WOLLONGONG PRIVATE HOSPITAL,WOLLONGONG,NSW,2500,PRIVATE,,
0016320H,WOLPER JEWISH HOSPITAL,WOOLLAHRA,NSW,2025,PRIVATE,,
0060000L,WOMENS AND CHILDRENS HOSPITAL,NORTH ADELAIDE,SA,5006,PUBLIC,,
0051360X,WONDAI HOSPITAL,WONDAI,QLD,4606,PUBLIC,,
0070810H,WONGAN HILLS HOSPITAL,WONGAN HILLS,WA,6603,PUBLIC,,
0060450J,WOOMERA HOSPITAL,WOOMERA,SA,5720,PUBLIC,,
0051370W,WOORABINDA HOSPITAL,WOORABINDA,QLD,4702,PUBLIC,,
0012650Y,WOY WOY PUBLIC HOSPITAL,WOY WOY,NSW,2256,PUBLIC,,
0060620H,WUDINNA HOSPITAL,WUDINNA,SA,5652,PUBLIC,,
0070790W,WYALKATCHEM HOSPITAL,WYALKATCHEM,WA,6485,PUBLIC,,
0012410T,WYALONG HOSPITAL,WEST WYALONG,NSW,2671,PUBLIC,,
0036930T,WYNDHAM CLINIC,WERRIBEE,VIC,3030,PRIVATE,,
0071200B,WYNDHAM HOSPITAL,WYNDHAM,WA,6740,PUBLIC,,
0012770L,WYONG PUBLIC HOSPITAL,HAMLYN TERRACE,NSW,2259,PUBLIC,,
0031990Y,YARRA RANGES HEALTH,LILYDALE,VIC,3140,PUBLIC,,
0031430J,YARRAM & DISTRICT HEALTH SERVICE,YARRAM,VIC,3971,PUBLIC,,
0031440H,YARRAWONGA HEALTH,YARRAWONGA,VIC,3730,PUBLIC,,
0012420L,YASS DISTRICT HOSPITAL,YASS,NSW,2582,PUBLIC,,
0031450F,YEA AND DISTRICT MEMORIAL HOSPITAL,YEA,VIC,3717,PUBLIC,,
0070830B,YORK HOSPITAL,YORK,WA,6302,PUBLIC,,
0012430K,YOUNG DISTRICT HOSPITAL,YOUNG,NSW,2594,PUBLIC,,
0032130L,YOUTH PREVENTION AND RECOVERY CARE (Y-PARC),FRANKSTON,VIC,3199,PUBLIC,,